ags,strasse,ort,hnr,wahlbezirk_nr,wahlbezirk_name,wahlraum_name,wahlraum_addresse,wahlraum_addresse2,wahlbehoerde,hausnummer_start,hausnummer_ende,note
3358024,Ahornring,Walsrode,[1 - 112],102,"0102 Hans-Brüggemann-Schule, Wahlraum 2","102 - Hans-Brüggemann-Schule, Wahlraum 2",Brüggemannstraße 8,29664 Walsrode,Stadt Walsrode,1,112,
3358024,Ahornstraße,Walsrode OT Bomlitz,[1 - 49],131,0131 Bomlitz Ost,131 - Bomlitz Ost,August-Wolff-Straße 3,29699 Walsrode,Stadt Walsrode,1,49,
3358024,Ahrsener Straße,Walsrode OT Borg,[1 - 26],135,0135 Borg-Cordingen,135 - Borg-Cordingen,Borger Straße 30,29699 Walsrode,Stadt Walsrode,1,26,
3358024,Akazienstraße,Walsrode,[1 - 26],102,"0102 Hans-Brüggemann-Schule, Wahlraum 2","102 - Hans-Brüggemann-Schule, Wahlraum 2",Brüggemannstraße 8,29664 Walsrode,Stadt Walsrode,1,26,
3358024,Albert-Einstein-Straße,Walsrode,[1 - 10],117,"0117 Alte Schule Vorbrück, Wahlraum 2","117 - Alte Schule Vorbrück, Wahlraum 2",Quintusstraße 35,29664 Walsrode,Stadt Walsrode,1,10,
3358024,Albrecht-Thaer-Straße,Walsrode,[1 - 25],101,"0101 Hans-Brüggemann-Schule, Wahlraum 1","101 - Hans-Brüggemann-Schule, Wahlraum 1",Brüggemannstraße 8,29664 Walsrode,Stadt Walsrode,1,25,
3358024,Altenboitzen,Walsrode OT Altenboitzen,[2 - 120],109,0109 Altenboitzen,109 - Altenboitzen,Altenboitzen 3,29664 Walsrode,Stadt Walsrode,2,120,
3358024,Alter Celler Weg,Walsrode OT Düshorn,[3 - 52],127,0127 Düshorn,127 - Düshorn,Auf dem Kamp 8,29664 Walsrode,Stadt Walsrode,3,52,
3358024,Alter Postweg,Walsrode,[1 - 37],103,0103 Grundschule Süd,103 - Grundschule Süd,Prager Straße 2,29664 Walsrode,Stadt Walsrode,1,37,
3358024,Am Ahlersteich,Walsrode,[2 - 4] gerade,118,0118 Gymnasium,118 - Gymnasium,Sunderstr. 19,29664 Walsrode,Stadt Walsrode,2,4,gerade
3358024,Am Anger,Walsrode OT Bomlitz,[1 - 18],131,0131 Bomlitz Ost,131 - Bomlitz Ost,August-Wolff-Straße 3,29699 Walsrode,Stadt Walsrode,1,18,
3358024,Am Anger,Walsrode OT Düshorn,[1 - 12],127,0127 Düshorn,127 - Düshorn,Auf dem Kamp 8,29664 Walsrode,Stadt Walsrode,1,12,
3358024,Am Badeteich,Walsrode,[1 - 95],118,0118 Gymnasium,118 - Gymnasium,Sunderstr. 19,29664 Walsrode,Stadt Walsrode,1,95,
3358024,Am Bahndamm,Walsrode,[1 - 12],116,"0116 Alte Schule Vorbrück, Wahlraum 1","116 - Alte Schule Vorbrück, Wahlraum 1",Quintusstraße 35,29664 Walsrode,Stadt Walsrode,1,12,
3358024,Am Bahnhof,Walsrode,[1 - 133],116,"0116 Alte Schule Vorbrück, Wahlraum 1","116 - Alte Schule Vorbrück, Wahlraum 1",Quintusstraße 35,29664 Walsrode,Stadt Walsrode,1,133,
3358024,Am Bayersfeld,Walsrode OT Benefeld,[1 - 3],133,0133 Benefeld Ost,133 - Benefeld Ost,Cordinger Straße 39,29699 Walsrode,Stadt Walsrode,1,3,
3358024,Am Bayershof,Walsrode OT Benefeld,[1 - 12],133,0133 Benefeld Ost,133 - Benefeld Ost,Cordinger Straße 39,29699 Walsrode,Stadt Walsrode,1,12,
3358024,Am Beetenbusch,Walsrode OT Düshorn,[1 - 10],127,0127 Düshorn,127 - Düshorn,Auf dem Kamp 8,29664 Walsrode,Stadt Walsrode,1,10,
3358024,Am Berge,Walsrode OT Bomlitz,[2 - 20] gerade,131,0131 Bomlitz Ost,131 - Bomlitz Ost,August-Wolff-Straße 3,29699 Walsrode,Stadt Walsrode,2,20,gerade
3358024,Am Berge,Walsrode OT Düshorn,[2 - 10],127,0127 Düshorn,127 - Düshorn,Auf dem Kamp 8,29664 Walsrode,Stadt Walsrode,2,10,
3358024,Am Bienenzaun,Walsrode OT Ahrsen,[1 - 4],137,0137 Ahrsen-Jarlingen,137 - Ahrsen-Jarlingen,Kettenburger Weg 2 A,29699 Walsrode,Stadt Walsrode,1,4,
3358024,Am Bienenzaun,Walsrode OT Jarlingen,[3 - 12],137,0137 Ahrsen-Jarlingen,137 - Ahrsen-Jarlingen,Kettenburger Weg 2 A,29699 Walsrode,Stadt Walsrode,3,12,
3358024,Am Böhmeufer,Walsrode OT Borg,[50 - 62 A],135,0135 Borg-Cordingen,135 - Borg-Cordingen,Borger Straße 30,29699 Walsrode,Stadt Walsrode,50,62,
3358024,Am Böhmeufer,Walsrode OT Borg,,136,0136 Uetzingen,136 - Uetzingen,Walsroder Straße 110,29699 Walsrode,Stadt Walsrode,0,0,
3358024,Am Böhmeufer,Walsrode OT Uetzingen,[1 - 8],136,0136 Uetzingen,136 - Uetzingen,Walsroder Straße 110,29699 Walsrode,Stadt Walsrode,1,8,
3358024,Am Breekamp,Walsrode OT Borg,[1 - 15],135,0135 Borg-Cordingen,135 - Borg-Cordingen,Borger Straße 30,29699 Walsrode,Stadt Walsrode,1,15,
3358024,Am Bullerberg,Walsrode,[1 - 38],117,"0117 Alte Schule Vorbrück, Wahlraum 2","117 - Alte Schule Vorbrück, Wahlraum 2",Quintusstraße 35,29664 Walsrode,Stadt Walsrode,1,38,
3358024,Am Diekkamp,Walsrode OT Benefeld,[1 - 18],134,0134 Benefeld West,134 - Benefeld West,Niedersachsenplatz 1,29699 Walsrode,Stadt Walsrode,1,18,
3358024,Am Dornbusch,Walsrode,[1 - 25],117,"0117 Alte Schule Vorbrück, Wahlraum 2","117 - Alte Schule Vorbrück, Wahlraum 2",Quintusstraße 35,29664 Walsrode,Stadt Walsrode,1,25,
3358024,Am Eichenkamp,Walsrode OT Bomlitz,[1 - 41],132,0132 Bomlitz West,132 - Bomlitz West,Papiermacherkamp 27,29699 Walsrode,Stadt Walsrode,1,41,
3358024,Am Engelbach,Walsrode OT Uetzingen,[2 - 22],136,0136 Uetzingen,136 - Uetzingen,Walsroder Straße 110,29699 Walsrode,Stadt Walsrode,2,22,
3358024,Am Fischteich,Walsrode OT Jarlingen,[1 - 4],137,0137 Ahrsen-Jarlingen,137 - Ahrsen-Jarlingen,Kettenburger Weg 2 A,29699 Walsrode,Stadt Walsrode,1,4,
3358024,Am Friedhof,Walsrode OT Honerdingen,[1 - 3] ungerade,125,0125 Honerdingen,125 - Honerdingen,Dorfallee 55,29664 Walsrode,Stadt Walsrode,1,3,ungerade
3358024,Am Glockenberg,Walsrode OT Düshorn,[1 - 15],127,0127 Düshorn,127 - Düshorn,Auf dem Kamp 8,29664 Walsrode,Stadt Walsrode,1,15,
3358024,Am Großen Busch,Walsrode OT Benefeld,[1 - 4],134,0134 Benefeld West,134 - Benefeld West,Niedersachsenplatz 1,29699 Walsrode,Stadt Walsrode,1,4,
3358024,Am Gutshof,Walsrode OT Bomlitz,[1 - 23 B],131,0131 Bomlitz Ost,131 - Bomlitz Ost,August-Wolff-Straße 3,29699 Walsrode,Stadt Walsrode,1,23,
3358024,Am Habichtskamp,Walsrode OT Bomlitz,[1 - 101],132,0132 Bomlitz West,132 - Bomlitz West,Papiermacherkamp 27,29699 Walsrode,Stadt Walsrode,1,101,
3358024,Am Hang,Walsrode OT Düshorn,[1 - 9],127,0127 Düshorn,127 - Düshorn,Auf dem Kamp 8,29664 Walsrode,Stadt Walsrode,1,9,
3358024,Am Haselbusch,Walsrode OT Bomlitz,[1 - 7],131,0131 Bomlitz Ost,131 - Bomlitz Ost,August-Wolff-Straße 3,29699 Walsrode,Stadt Walsrode,1,7,
3358024,Am Hellteich,Walsrode,[1 - 35],116,"0116 Alte Schule Vorbrück, Wahlraum 1","116 - Alte Schule Vorbrück, Wahlraum 1",Quintusstraße 35,29664 Walsrode,Stadt Walsrode,1,35,
3358024,Am Hofe,Walsrode OT Uetzingen,[1 - 4],136,0136 Uetzingen,136 - Uetzingen,Walsroder Straße 110,29699 Walsrode,Stadt Walsrode,1,4,
3358024,Am hohen Felde,Walsrode,[1 - 7],103,0103 Grundschule Süd,103 - Grundschule Süd,Prager Straße 2,29664 Walsrode,Stadt Walsrode,1,7,
3358024,Am Hoop,Walsrode OT Bomlitz,[1 - 13],132,0132 Bomlitz West,132 - Bomlitz West,Papiermacherkamp 27,29699 Walsrode,Stadt Walsrode,1,13,
3358024,Am Hopfenhof,Walsrode,[1 - 32 A],101,"0101 Hans-Brüggemann-Schule, Wahlraum 1","101 - Hans-Brüggemann-Schule, Wahlraum 1",Brüggemannstraße 8,29664 Walsrode,Stadt Walsrode,1,32,
3358024,Am Imbesbach,Walsrode,,127,0127 Düshorn,127 - Düshorn,Auf dem Kamp 8,29664 Walsrode,Stadt Walsrode,0,0,
3358024,Am Imbesbach,Walsrode OT Düshorn,[1 - 19 A],127,0127 Düshorn,127 - Düshorn,Auf dem Kamp 8,29664 Walsrode,Stadt Walsrode,1,19,
3358024,Am Karbödel,Walsrode OT Borg,[1 - 17],135,0135 Borg-Cordingen,135 - Borg-Cordingen,Borger Straße 30,29699 Walsrode,Stadt Walsrode,1,17,
3358024,Am Katzengrund,Walsrode OT Uetzingen,[1 - 27],136,0136 Uetzingen,136 - Uetzingen,Walsroder Straße 110,29699 Walsrode,Stadt Walsrode,1,27,
3358024,Am Kloster,Walsrode,[0 - 5],118,0118 Gymnasium,118 - Gymnasium,Sunderstr. 19,29664 Walsrode,Stadt Walsrode,0,5,
3358024,Am Mühlenhof,Walsrode OT Benefeld,[1 - 2305],134,0134 Benefeld West,134 - Benefeld West,Niedersachsenplatz 1,29699 Walsrode,Stadt Walsrode,1,2305,
3358024,Am Mühlenteich,Walsrode OT Düshorn,1,127,0127 Düshorn,127 - Düshorn,Auf dem Kamp 8,29664 Walsrode,Stadt Walsrode,1,1,
3358024,Am Nordsunder,Walsrode,[1 - 25],118,0118 Gymnasium,118 - Gymnasium,Sunderstr. 19,29664 Walsrode,Stadt Walsrode,1,25,
3358024,Am Osterbruch,Walsrode OT Düshorn,[2 - 28],127,0127 Düshorn,127 - Düshorn,Auf dem Kamp 8,29664 Walsrode,Stadt Walsrode,2,28,
3358024,Am Pascheberg,Walsrode OT Düshorn,[1 - 45],127,0127 Düshorn,127 - Düshorn,Auf dem Kamp 8,29664 Walsrode,Stadt Walsrode,1,45,
3358024,Am Riesbach,Walsrode OT Kroge,[1 - 12],138,0138 Bommelsen-Kroge,138 - Bommelsen-Kroge,Bosselsmoor 10,29699 Walsrode,Stadt Walsrode,1,12,
3358024,Am Rosengarten,Walsrode,[1 - 23],116,"0116 Alte Schule Vorbrück, Wahlraum 1","116 - Alte Schule Vorbrück, Wahlraum 1",Quintusstraße 35,29664 Walsrode,Stadt Walsrode,1,23,
3358024,Am Sandstich,Walsrode OT Bomlitz,[1 - 7] ungerade,133,0133 Benefeld Ost,133 - Benefeld Ost,Cordinger Straße 39,29699 Walsrode,Stadt Walsrode,1,7,ungerade
3358024,Am Scharfen Berge,Walsrode OT Düshorn,[1 - 17],127,0127 Düshorn,127 - Düshorn,Auf dem Kamp 8,29664 Walsrode,Stadt Walsrode,1,17,
3358024,Am Tierhof,Walsrode,[3 - 32],117,"0117 Alte Schule Vorbrück, Wahlraum 2","117 - Alte Schule Vorbrück, Wahlraum 2",Quintusstraße 35,29664 Walsrode,Stadt Walsrode,3,32,
3358024,Am Vogelpark,Walsrode OT Borg,[1 - 9],135,0135 Borg-Cordingen,135 - Borg-Cordingen,Borger Straße 30,29699 Walsrode,Stadt Walsrode,1,9,
3358024,Am Waldbad,Walsrode,[1 - 11],103,0103 Grundschule Süd,103 - Grundschule Süd,Prager Straße 2,29664 Walsrode,Stadt Walsrode,1,11,
3358024,Am Walde,Walsrode OT Benefeld,[1 - 11 A],134,0134 Benefeld West,134 - Benefeld West,Niedersachsenplatz 1,29699 Walsrode,Stadt Walsrode,1,11,
3358024,Am Wiechmannshof,Walsrode OT Ahrsen,[1 - 5] ungerade,137,0137 Ahrsen-Jarlingen,137 - Ahrsen-Jarlingen,Kettenburger Weg 2 A,29699 Walsrode,Stadt Walsrode,1,5,ungerade
3358024,Amselsteig,Walsrode OT Bomlitz,[1 - 45],132,0132 Bomlitz West,132 - Bomlitz West,Papiermacherkamp 27,29699 Walsrode,Stadt Walsrode,1,45,
3358024,Amselweg,Walsrode OT Düshorn,[1 - 8],127,0127 Düshorn,127 - Düshorn,Auf dem Kamp 8,29664 Walsrode,Stadt Walsrode,1,8,
3358024,An den Buchen,Walsrode OT Bomlitz,[1 - 35],131,0131 Bomlitz Ost,131 - Bomlitz Ost,August-Wolff-Straße 3,29699 Walsrode,Stadt Walsrode,1,35,
3358024,An der Frauenwiese,Walsrode,[1 - 15],116,"0116 Alte Schule Vorbrück, Wahlraum 1","116 - Alte Schule Vorbrück, Wahlraum 1",Quintusstraße 35,29664 Walsrode,Stadt Walsrode,1,15,
3358024,An der Gänseweide,Walsrode,[1 - 14],101,"0101 Hans-Brüggemann-Schule, Wahlraum 1","101 - Hans-Brüggemann-Schule, Wahlraum 1",Brüggemannstraße 8,29664 Walsrode,Stadt Walsrode,1,14,
3358024,An der Lehmkuhle,Walsrode,[1 - 10],114,0114 Grundschule am Markt,114 - Grundschule am Markt,Marktstraße 11,29664 Walsrode,Stadt Walsrode,1,10,
3358024,An der Obstbaumwiese,Walsrode OT Düshorn,[2 - 28],127,0127 Düshorn,127 - Düshorn,Auf dem Kamp 8,29664 Walsrode,Stadt Walsrode,2,28,
3358024,An der Pauluskirche,Walsrode OT Bomlitz,[1 - 3] ungerade,132,0132 Bomlitz West,132 - Bomlitz West,Papiermacherkamp 27,29699 Walsrode,Stadt Walsrode,1,3,ungerade
3358024,An der Sandkuhle,Walsrode OT Honerdingen,[1 - 12],125,0125 Honerdingen,125 - Honerdingen,Dorfallee 55,29664 Walsrode,Stadt Walsrode,1,12,
3358024,An der Warnau,Walsrode OT Borg,[0 - 82],135,0135 Borg-Cordingen,135 - Borg-Cordingen,Borger Straße 30,29699 Walsrode,Stadt Walsrode,0,82,
3358024,An der Wisselshorst,Walsrode OT Bomlitz,[1 - 26],131,0131 Bomlitz Ost,131 - Bomlitz Ost,August-Wolff-Straße 3,29699 Walsrode,Stadt Walsrode,1,26,
3358024,Anna-von-Behr-Straße,Walsrode,[1 - 11],117,"0117 Alte Schule Vorbrück, Wahlraum 2","117 - Alte Schule Vorbrück, Wahlraum 2",Quintusstraße 35,29664 Walsrode,Stadt Walsrode,1,11,
3358024,Anne-Frank-Straße,Walsrode,[1 - 30],118,0118 Gymnasium,118 - Gymnasium,Sunderstr. 19,29664 Walsrode,Stadt Walsrode,1,30,
3358024,Apfelallee,Walsrode,[1 - 20],114,0114 Grundschule am Markt,114 - Grundschule am Markt,Marktstraße 11,29664 Walsrode,Stadt Walsrode,1,20,
3358024,Aspeloh,Walsrode OT Bomlitz,[1 - 18],131,0131 Bomlitz Ost,131 - Bomlitz Ost,August-Wolff-Straße 3,29699 Walsrode,Stadt Walsrode,1,18,
3358024,Auf dem Bossel,Walsrode OT Bommelsen,[1 - 28],138,0138 Bommelsen-Kroge,138 - Bommelsen-Kroge,Bosselsmoor 10,29699 Walsrode,Stadt Walsrode,1,28,
3358024,Auf dem Kamp,Walsrode OT Düshorn,[1 - 51],127,0127 Düshorn,127 - Düshorn,Auf dem Kamp 8,29664 Walsrode,Stadt Walsrode,1,51,
3358024,August-Wolff-Straße,Walsrode OT Bomlitz,[1 - 37],131,0131 Bomlitz Ost,131 - Bomlitz Ost,August-Wolff-Straße 3,29699 Walsrode,Stadt Walsrode,1,37,
3358024,Bahnhofstraße,Walsrode OT Bomlitz,[1 - 78],132,0132 Bomlitz West,132 - Bomlitz West,Papiermacherkamp 27,29699 Walsrode,Stadt Walsrode,1,78,
3358024,Baitgersweg,Walsrode OT Jarlingen,[2 - 8 F] gerade,137,0137 Ahrsen-Jarlingen,137 - Ahrsen-Jarlingen,Kettenburger Weg 2 A,29699 Walsrode,Stadt Walsrode,2,8,gerade
3358024,Bayershofer Weg,Walsrode OT Benefeld,[2 - 25],133,0133 Benefeld Ost,133 - Benefeld Ost,Cordinger Straße 39,29699 Walsrode,Stadt Walsrode,2,25,
3358024,Beckersberg,Walsrode,[1 - 25],103,0103 Grundschule Süd,103 - Grundschule Süd,Prager Straße 2,29664 Walsrode,Stadt Walsrode,1,25,
3358024,Beethovenstraße,Walsrode,[1 - 37],116,"0116 Alte Schule Vorbrück, Wahlraum 1","116 - Alte Schule Vorbrück, Wahlraum 1",Quintusstraße 35,29664 Walsrode,Stadt Walsrode,1,37,
3358024,Beethovenstraße,Walsrode OT Benefeld,[1 - 47],133,0133 Benefeld Ost,133 - Benefeld Ost,Cordinger Straße 39,29699 Walsrode,Stadt Walsrode,1,47,
3358024,Beim Ginsterfeld,Walsrode OT Bomlitz,[1 - 17],131,0131 Bomlitz Ost,131 - Bomlitz Ost,August-Wolff-Straße 3,29699 Walsrode,Stadt Walsrode,1,17,
3358024,Beim Vorwerk,Walsrode,[1 - 9],101,"0101 Hans-Brüggemann-Schule, Wahlraum 1","101 - Hans-Brüggemann-Schule, Wahlraum 1",Brüggemannstraße 8,29664 Walsrode,Stadt Walsrode,1,9,
3358024,Benefelder Straße,Walsrode OT Borg,[1 - 7],135,0135 Borg-Cordingen,135 - Borg-Cordingen,Borger Straße 30,29699 Walsrode,Stadt Walsrode,1,7,
3358024,Benzen,Walsrode OT Benzen,[1 - 99],126,0126 Benzen,126 - Benzen,Benzen 82,29664 Walsrode,Stadt Walsrode,1,99,
3358024,Benzer Straße,Walsrode,[1 - 99],101,"0101 Hans-Brüggemann-Schule, Wahlraum 1","101 - Hans-Brüggemann-Schule, Wahlraum 1",Brüggemannstraße 8,29664 Walsrode,Stadt Walsrode,1,99,
3358024,Benzer Winkel,Walsrode,[1 - 8],101,"0101 Hans-Brüggemann-Schule, Wahlraum 1","101 - Hans-Brüggemann-Schule, Wahlraum 1",Brüggemannstraße 8,29664 Walsrode,Stadt Walsrode,1,8,
3358024,Bergstraße,Walsrode,[1 - 97],114,0114 Grundschule am Markt,114 - Grundschule am Markt,Marktstraße 11,29664 Walsrode,Stadt Walsrode,1,97,
3358024,Bergstraße,Walsrode OT Benefeld,[1 - 19],133,0133 Benefeld Ost,133 - Benefeld Ost,Cordinger Straße 39,29699 Walsrode,Stadt Walsrode,1,19,
3358024,Berthold-Schwarz-Straße,Walsrode OT Bomlitz,[1 - 22],132,0132 Bomlitz West,132 - Bomlitz West,Papiermacherkamp 27,29699 Walsrode,Stadt Walsrode,1,22,
3358024,Birkenstraße,Walsrode OT Bomlitz,[1 - 14],131,0131 Bomlitz Ost,131 - Bomlitz Ost,August-Wolff-Straße 3,29699 Walsrode,Stadt Walsrode,1,14,
3358024,Birkenweg,Walsrode,[2 - 19],102,"0102 Hans-Brüggemann-Schule, Wahlraum 2","102 - Hans-Brüggemann-Schule, Wahlraum 2",Brüggemannstraße 8,29664 Walsrode,Stadt Walsrode,2,19,
3358024,Bismarckring,Walsrode,[2 - 106] gerade,103,0103 Grundschule Süd,103 - Grundschule Süd,Prager Straße 2,29664 Walsrode,Stadt Walsrode,2,106,gerade
3358024,Blainville-Ring,Walsrode OT Bomlitz,[1 - 37],131,0131 Bomlitz Ost,131 - Bomlitz Ost,August-Wolff-Straße 3,29699 Walsrode,Stadt Walsrode,1,37,
3358024,Blankemühlen,Walsrode OT Vethem,[1 - 7],105,0105 Vethem,105 - Vethem,Vethem 57,29664 Walsrode,Stadt Walsrode,1,7,
3358024,Bockhorn,Walsrode OT Bockhorn,[1 - 93],128,0128 Bockhorn,128 - Bockhorn,Bockhorn 9,29664 Walsrode,Stadt Walsrode,1,93,
3358024,Bomlitzer Straße,Walsrode OT Honerdingen,[8 I - 120],125,0125 Honerdingen,125 - Honerdingen,Dorfallee 55,29664 Walsrode,Stadt Walsrode,8,120,
3358024,Bommelser Straße,Walsrode OT Bommelsen,[1 - 13],138,0138 Bommelsen-Kroge,138 - Bommelsen-Kroge,Bosselsmoor 10,29699 Walsrode,Stadt Walsrode,1,13,
3358024,Borger Straße,Walsrode OT Borg,[1 - 102],135,0135 Borg-Cordingen,135 - Borg-Cordingen,Borger Straße 30,29699 Walsrode,Stadt Walsrode,1,102,
3358024,Bosselsmoor,Walsrode OT Bommelsen,[1 - 28],138,0138 Bommelsen-Kroge,138 - Bommelsen-Kroge,Bosselsmoor 10,29699 Walsrode,Stadt Walsrode,1,28,
3358024,Bosselsmoor,Walsrode OT Kroge,,138,0138 Bommelsen-Kroge,138 - Bommelsen-Kroge,Bosselsmoor 10,29699 Walsrode,Stadt Walsrode,0,0,
3358024,Brammerweg,Walsrode,[1 - 10],118,0118 Gymnasium,118 - Gymnasium,Sunderstr. 19,29664 Walsrode,Stadt Walsrode,1,10,
3358024,Brandsheide,Walsrode OT Benefeld,[1 - 34],134,0134 Benefeld West,134 - Benefeld West,Niedersachsenplatz 1,29699 Walsrode,Stadt Walsrode,1,34,
3358024,Breslauer Straße,Walsrode OT Bomlitz,[3 - 23],131,0131 Bomlitz Ost,131 - Bomlitz Ost,August-Wolff-Straße 3,29699 Walsrode,Stadt Walsrode,3,23,
3358024,Breslauer Weg,Walsrode OT Düshorn,[1 - 22],127,0127 Düshorn,127 - Düshorn,Auf dem Kamp 8,29664 Walsrode,Stadt Walsrode,1,22,
3358024,Bromberger Straße,Walsrode,[1 - 17],103,0103 Grundschule Süd,103 - Grundschule Süd,Prager Straße 2,29664 Walsrode,Stadt Walsrode,1,17,
3358024,Bronzeweg,Walsrode OT Honerdingen,[1 - 18],125,0125 Honerdingen,125 - Honerdingen,Dorfallee 55,29664 Walsrode,Stadt Walsrode,1,18,
3358024,Bruchweg,Walsrode OT Düshorn,[1 - 7] ungerade,127,0127 Düshorn,127 - Düshorn,Auf dem Kamp 8,29664 Walsrode,Stadt Walsrode,1,7,ungerade
3358024,Brucknerweg,Walsrode,[1 - 2 A],116,"0116 Alte Schule Vorbrück, Wahlraum 1","116 - Alte Schule Vorbrück, Wahlraum 1",Quintusstraße 35,29664 Walsrode,Stadt Walsrode,1,2,
3358024,Brückstraße,Walsrode,[1 - 9],116,"0116 Alte Schule Vorbrück, Wahlraum 1","116 - Alte Schule Vorbrück, Wahlraum 1",Quintusstraße 35,29664 Walsrode,Stadt Walsrode,1,9,
3358024,Brüggemannstraße,Walsrode,[1 - 53],101,"0101 Hans-Brüggemann-Schule, Wahlraum 1","101 - Hans-Brüggemann-Schule, Wahlraum 1",Brüggemannstraße 8,29664 Walsrode,Stadt Walsrode,1,53,
3358024,Brunkenwinkel,Walsrode,[1 - 33],115,"0115 Kulturzentrum ""mittendrin""","115 - Kulturzentrum ""mittendrin""",Moorstraße 89,29664 Walsrode,Stadt Walsrode,1,33,
3358024,Brüsehof,Walsrode OT Ahrsen,[1 - 11],137,0137 Ahrsen-Jarlingen,137 - Ahrsen-Jarlingen,Kettenburger Weg 2 A,29699 Walsrode,Stadt Walsrode,1,11,
3358024,Buchenweg,Walsrode,[1 - 10],102,"0102 Hans-Brüggemann-Schule, Wahlraum 2","102 - Hans-Brüggemann-Schule, Wahlraum 2",Brüggemannstraße 8,29664 Walsrode,Stadt Walsrode,1,10,
3358024,Bussen Barg,Walsrode OT Düshorn,[1 - 26],127,0127 Düshorn,127 - Düshorn,Auf dem Kamp 8,29664 Walsrode,Stadt Walsrode,1,26,
3358024,Caroline-Herschel-Straße,Walsrode,[1 - 27],117,"0117 Alte Schule Vorbrück, Wahlraum 2","117 - Alte Schule Vorbrück, Wahlraum 2",Quintusstraße 35,29664 Walsrode,Stadt Walsrode,1,27,
3358024,Caroline-von-Marschalck-Straße,Walsrode,[2 - 14],117,"0117 Alte Schule Vorbrück, Wahlraum 2","117 - Alte Schule Vorbrück, Wahlraum 2",Quintusstraße 35,29664 Walsrode,Stadt Walsrode,2,14,
3358024,Celler Straße,Walsrode OT Düshorn,[1 - 47],127,0127 Düshorn,127 - Düshorn,Auf dem Kamp 8,29664 Walsrode,Stadt Walsrode,1,47,
3358024,Claudiusstraße,Walsrode,[1 - 25],115,"0115 Kulturzentrum ""mittendrin""","115 - Kulturzentrum ""mittendrin""",Moorstraße 89,29664 Walsrode,Stadt Walsrode,1,25,
3358024,Cordinger Straße,Walsrode,[1 - 38],118,0118 Gymnasium,118 - Gymnasium,Sunderstr. 19,29664 Walsrode,Stadt Walsrode,1,38,
3358024,Cordinger Straße,Walsrode OT Benefeld,[20 - 102],133,0133 Benefeld Ost,133 - Benefeld Ost,Cordinger Straße 39,29699 Walsrode,Stadt Walsrode,20,102,
3358024,Cordinger Straße,Walsrode OT Benefeld,[1 - 19],134,0134 Benefeld West,134 - Benefeld West,Niedersachsenplatz 1,29699 Walsrode,Stadt Walsrode,1,19,
3358024,Dammstraße,Walsrode,[1 - 20],114,0114 Grundschule am Markt,114 - Grundschule am Markt,Marktstraße 11,29664 Walsrode,Stadt Walsrode,1,20,
3358024,Danziger Straße,Walsrode,[1 - 43],103,0103 Grundschule Süd,103 - Grundschule Süd,Prager Straße 2,29664 Walsrode,Stadt Walsrode,1,43,
3358024,Danziger Weg,Walsrode OT Benefeld,[1 - 59],134,0134 Benefeld West,134 - Benefeld West,Niedersachsenplatz 1,29699 Walsrode,Stadt Walsrode,1,59,
3358024,Dehnbosteler Weg,Walsrode OT Bommelsen,[1 - 4 A],138,0138 Bommelsen-Kroge,138 - Bommelsen-Kroge,Bosselsmoor 10,29699 Walsrode,Stadt Walsrode,1,4,
3358024,Deiler Weg,Walsrode OT Düshorn,[1 - 7],127,0127 Düshorn,127 - Düshorn,Auf dem Kamp 8,29664 Walsrode,Stadt Walsrode,1,7,
3358024,Dierkingstraße,Walsrode,[6 - 28],117,"0117 Alte Schule Vorbrück, Wahlraum 2","117 - Alte Schule Vorbrück, Wahlraum 2",Quintusstraße 35,29664 Walsrode,Stadt Walsrode,6,28,
3358024,Dorfallee,Walsrode OT Honerdingen,[1 F - 124],125,0125 Honerdingen,125 - Honerdingen,Dorfallee 55,29664 Walsrode,Stadt Walsrode,1,124,
3358024,Dorfmarker Weg,Walsrode OT Bomlitz,2,131,0131 Bomlitz Ost,131 - Bomlitz Ost,August-Wolff-Straße 3,29699 Walsrode,Stadt Walsrode,2,2,
3358024,Dorfstraße,Walsrode OT Ahrsen,[15 - 36],137,0137 Ahrsen-Jarlingen,137 - Ahrsen-Jarlingen,Kettenburger Weg 2 A,29699 Walsrode,Stadt Walsrode,15,36,
3358024,Dorfstraße,Walsrode OT Jarlingen,[0 - 32],137,0137 Ahrsen-Jarlingen,137 - Ahrsen-Jarlingen,Kettenburger Weg 2 A,29699 Walsrode,Stadt Walsrode,0,32,
3358024,Dr.-Schomerus-Straße,Walsrode,[1 - 30],118,0118 Gymnasium,118 - Gymnasium,Sunderstr. 19,29664 Walsrode,Stadt Walsrode,1,30,
3358024,Drosselkamp,Walsrode OT Bomlitz,[1 - 32],132,0132 Bomlitz West,132 - Bomlitz West,Papiermacherkamp 27,29699 Walsrode,Stadt Walsrode,1,32,
3358024,Drosselweg,Walsrode OT Düshorn,[1 - 4],127,0127 Düshorn,127 - Düshorn,Auf dem Kamp 8,29664 Walsrode,Stadt Walsrode,1,4,
3358024,Dürerring,Walsrode,[1 - 138],117,"0117 Alte Schule Vorbrück, Wahlraum 2","117 - Alte Schule Vorbrück, Wahlraum 2",Quintusstraße 35,29664 Walsrode,Stadt Walsrode,1,138,
3358024,Düshorner Landstraße,Walsrode,[0 - 1],117,"0117 Alte Schule Vorbrück, Wahlraum 2","117 - Alte Schule Vorbrück, Wahlraum 2",Quintusstraße 35,29664 Walsrode,Stadt Walsrode,0,1,
3358024,Düsterweg,Walsrode OT Düshorn,[1 - 4],127,0127 Düshorn,127 - Düshorn,Auf dem Kamp 8,29664 Walsrode,Stadt Walsrode,1,4,
3358024,Ebbingen,Walsrode OT Ebbingen,[1 - 112],123,0123 Ebbingen,123 - Ebbingen,Ebbingen 33,29664 Walsrode,Stadt Walsrode,1,112,
3358024,Ebbinger Straße,Walsrode,[1 - 3],114,0114 Grundschule am Markt,114 - Grundschule am Markt,Marktstraße 11,29664 Walsrode,Stadt Walsrode,1,3,
3358024,Eibenweg,Walsrode,[1 - 6],102,"0102 Hans-Brüggemann-Schule, Wahlraum 2","102 - Hans-Brüggemann-Schule, Wahlraum 2",Brüggemannstraße 8,29664 Walsrode,Stadt Walsrode,1,6,
3358024,Eichendorffstraße,Walsrode OT Benefeld,[1 - 15],133,0133 Benefeld Ost,133 - Benefeld Ost,Cordinger Straße 39,29699 Walsrode,Stadt Walsrode,1,15,
3358024,Eichenkamp,Walsrode OT Honerdingen,[1 - 2],125,0125 Honerdingen,125 - Honerdingen,Dorfallee 55,29664 Walsrode,Stadt Walsrode,1,2,
3358024,Eichenstraße,Walsrode,[1 - 62],102,"0102 Hans-Brüggemann-Schule, Wahlraum 2","102 - Hans-Brüggemann-Schule, Wahlraum 2",Brüggemannstraße 8,29664 Walsrode,Stadt Walsrode,1,62,
3358024,Eickhof,Walsrode OT Ahrsen,[1 - 2 A],137,0137 Ahrsen-Jarlingen,137 - Ahrsen-Jarlingen,Kettenburger Weg 2 A,29699 Walsrode,Stadt Walsrode,1,2,
3358024,Eisenweg,Walsrode OT Honerdingen,[1 - 4],125,0125 Honerdingen,125 - Honerdingen,Dorfallee 55,29664 Walsrode,Stadt Walsrode,1,4,
3358024,Elferdinger Straße,Walsrode OT Uetzingen,[1 - 21 A],136,0136 Uetzingen,136 - Uetzingen,Walsroder Straße 110,29699 Walsrode,Stadt Walsrode,1,21,
3358024,Elisabeth-Selbert-Straße,Walsrode,[1 - 14],117,"0117 Alte Schule Vorbrück, Wahlraum 2","117 - Alte Schule Vorbrück, Wahlraum 2",Quintusstraße 35,29664 Walsrode,Stadt Walsrode,1,14,
3358024,Ellinghausen,Walsrode OT Düshorn,[1 - 12],127,0127 Düshorn,127 - Düshorn,Auf dem Kamp 8,29664 Walsrode,Stadt Walsrode,1,12,
3358024,Ellinghäuser Straße,Walsrode OT Düshorn,[1 - 15],127,0127 Düshorn,127 - Düshorn,Auf dem Kamp 8,29664 Walsrode,Stadt Walsrode,1,15,
3358024,Erlenring,Walsrode OT Bomlitz,[1 - 31],131,0131 Bomlitz Ost,131 - Bomlitz Ost,August-Wolff-Straße 3,29699 Walsrode,Stadt Walsrode,1,31,
3358024,Erlenweg,Walsrode,[2 - 17],102,"0102 Hans-Brüggemann-Schule, Wahlraum 2","102 - Hans-Brüggemann-Schule, Wahlraum 2",Brüggemannstraße 8,29664 Walsrode,Stadt Walsrode,2,17,
3358024,Ernst-August-Straße,Walsrode,[0 S - 22],101,"0101 Hans-Brüggemann-Schule, Wahlraum 1","101 - Hans-Brüggemann-Schule, Wahlraum 1",Brüggemannstraße 8,29664 Walsrode,Stadt Walsrode,0,22,
3358024,Ernst-Moritz-Arndt-Straße,Walsrode,[2 - 18],115,"0115 Kulturzentrum ""mittendrin""","115 - Kulturzentrum ""mittendrin""",Moorstraße 89,29664 Walsrode,Stadt Walsrode,2,18,
3358024,Eschenring,Walsrode,[1 - 45],102,"0102 Hans-Brüggemann-Schule, Wahlraum 2","102 - Hans-Brüggemann-Schule, Wahlraum 2",Brüggemannstraße 8,29664 Walsrode,Stadt Walsrode,1,45,
3358024,Fallingbosteler Straße,Walsrode OT Bomlitz,[1 - 72],131,0131 Bomlitz Ost,131 - Bomlitz Ost,August-Wolff-Straße 3,29699 Walsrode,Stadt Walsrode,1,72,
3358024,Fallingbosteler Straße,Walsrode OT Düshorn,[1 - 26],127,0127 Düshorn,127 - Düshorn,Auf dem Kamp 8,29664 Walsrode,Stadt Walsrode,1,26,
3358024,Fasanenweg,Walsrode OT Borg,[2 - 9],135,0135 Borg-Cordingen,135 - Borg-Cordingen,Borger Straße 30,29699 Walsrode,Stadt Walsrode,2,9,
3358024,Feldchaussee,Walsrode OT Bomlitz,[4 - 18],131,0131 Bomlitz Ost,131 - Bomlitz Ost,August-Wolff-Straße 3,29699 Walsrode,Stadt Walsrode,4,18,
3358024,Feldstraße,Walsrode OT Benefeld,[1 - 12],134,0134 Benefeld West,134 - Benefeld West,Niedersachsenplatz 1,29699 Walsrode,Stadt Walsrode,1,12,
3358024,Fichtenring,Walsrode OT Bomlitz,[1 - 39],131,0131 Bomlitz Ost,131 - Bomlitz Ost,August-Wolff-Straße 3,29699 Walsrode,Stadt Walsrode,1,39,
3358024,Fichtenweg,Walsrode,[1 - 10],102,"0102 Hans-Brüggemann-Schule, Wahlraum 2","102 - Hans-Brüggemann-Schule, Wahlraum 2",Brüggemannstraße 8,29664 Walsrode,Stadt Walsrode,1,10,
3358024,Finkenweg,Walsrode OT Bomlitz,[1 - 6],132,0132 Bomlitz West,132 - Bomlitz West,Papiermacherkamp 27,29699 Walsrode,Stadt Walsrode,1,6,
3358024,Finkenweg,Walsrode OT Düshorn,[1 - 6],127,0127 Düshorn,127 - Düshorn,Auf dem Kamp 8,29664 Walsrode,Stadt Walsrode,1,6,
3358024,Flachsacker,Walsrode OT Bomlitz,[1 - 6],131,0131 Bomlitz Ost,131 - Bomlitz Ost,August-Wolff-Straße 3,29699 Walsrode,Stadt Walsrode,1,6,
3358024,Flachsröten,Walsrode,[1 - 10],103,0103 Grundschule Süd,103 - Grundschule Süd,Prager Straße 2,29664 Walsrode,Stadt Walsrode,1,10,
3358024,Fliederweg,Walsrode,[1 - 27],102,"0102 Hans-Brüggemann-Schule, Wahlraum 2","102 - Hans-Brüggemann-Schule, Wahlraum 2",Brüggemannstraße 8,29664 Walsrode,Stadt Walsrode,1,27,
3358024,Flötenkamp,Walsrode,[1 - 47],103,0103 Grundschule Süd,103 - Grundschule Süd,Prager Straße 2,29664 Walsrode,Stadt Walsrode,1,47,
3358024,Föhrenring,Walsrode OT Bomlitz,[1 - 49],131,0131 Bomlitz Ost,131 - Bomlitz Ost,August-Wolff-Straße 3,29699 Walsrode,Stadt Walsrode,1,49,
3358024,Frauenring,Walsrode,[1 - 19],116,"0116 Alte Schule Vorbrück, Wahlraum 1","116 - Alte Schule Vorbrück, Wahlraum 1",Quintusstraße 35,29664 Walsrode,Stadt Walsrode,1,19,
3358024,Freudenthalstraße,Walsrode,[3 - 59],114,0114 Grundschule am Markt,114 - Grundschule am Markt,Marktstraße 11,29664 Walsrode,Stadt Walsrode,3,59,
3358024,Freudenthalstraße,Walsrode OT Benefeld,[1 - 10],134,0134 Benefeld West,134 - Benefeld West,Niedersachsenplatz 1,29699 Walsrode,Stadt Walsrode,1,10,
3358024,Friedhofsweg,Walsrode OT Bomlitz,[2 - 22] gerade,132,0132 Bomlitz West,132 - Bomlitz West,Papiermacherkamp 27,29699 Walsrode,Stadt Walsrode,2,22,gerade
3358024,Friedrich-Bolloni-Ring,Walsrode,[1 - 18],103,0103 Grundschule Süd,103 - Grundschule Süd,Prager Straße 2,29664 Walsrode,Stadt Walsrode,1,18,
3358024,Fritz-Reuter-Straße,Walsrode,[2 - 53],115,"0115 Kulturzentrum ""mittendrin""","115 - Kulturzentrum ""mittendrin""",Moorstraße 89,29664 Walsrode,Stadt Walsrode,2,53,
3358024,Fuhrenkamp,Walsrode OT Bomlitz,[1 - 19],132,0132 Bomlitz West,132 - Bomlitz West,Papiermacherkamp 27,29699 Walsrode,Stadt Walsrode,1,19,
3358024,Fuhrenkamp,Walsrode OT Düshorn,[1 - 60],127,0127 Düshorn,127 - Düshorn,Auf dem Kamp 8,29664 Walsrode,Stadt Walsrode,1,60,
3358024,Fulde,Walsrode OT Fulde,[1 - 73],119,0119 Fulde,119 - Fulde,Fulde 57,29664 Walsrode,Stadt Walsrode,1,73,
3358024,Gartenhof,Walsrode,[2 - 10] gerade,102,"0102 Hans-Brüggemann-Schule, Wahlraum 2","102 - Hans-Brüggemann-Schule, Wahlraum 2",Brüggemannstraße 8,29664 Walsrode,Stadt Walsrode,2,10,gerade
3358024,Gartenstraße,Walsrode OT Benefeld,[1 - 6],134,0134 Benefeld West,134 - Benefeld West,Niedersachsenplatz 1,29699 Walsrode,Stadt Walsrode,1,6,
3358024,Geibelstraße,Walsrode,[1 - 101],115,"0115 Kulturzentrum ""mittendrin""","115 - Kulturzentrum ""mittendrin""",Moorstraße 89,29664 Walsrode,Stadt Walsrode,1,101,
3358024,Gerbergasse,Walsrode,[1 - 2],118,0118 Gymnasium,118 - Gymnasium,Sunderstr. 19,29664 Walsrode,Stadt Walsrode,1,2,
3358024,Gernröder Straße,Walsrode,[1 A - 26],115,"0115 Kulturzentrum ""mittendrin""","115 - Kulturzentrum ""mittendrin""",Moorstraße 89,29664 Walsrode,Stadt Walsrode,1,26,
3358024,Geschwister-Scholl-Straße,Walsrode,[1 - 10],118,0118 Gymnasium,118 - Gymnasium,Sunderstr. 19,29664 Walsrode,Stadt Walsrode,1,10,
3358024,Ginsterweg,Walsrode,[1 - 12],102,"0102 Hans-Brüggemann-Schule, Wahlraum 2","102 - Hans-Brüggemann-Schule, Wahlraum 2",Brüggemannstraße 8,29664 Walsrode,Stadt Walsrode,1,12,
3358024,Gläsersdorfer Straße,Walsrode OT Bomlitz,[1 - 11],131,0131 Bomlitz Ost,131 - Bomlitz Ost,August-Wolff-Straße 3,29699 Walsrode,Stadt Walsrode,1,11,
3358024,Glockenblumenweg,Walsrode,[1 - 17],115,"0115 Kulturzentrum ""mittendrin""","115 - Kulturzentrum ""mittendrin""",Moorstraße 89,29664 Walsrode,Stadt Walsrode,1,17,
3358024,Gneisenaustraße,Walsrode,[1 - 27],101,"0101 Hans-Brüggemann-Schule, Wahlraum 1","101 - Hans-Brüggemann-Schule, Wahlraum 1",Brüggemannstraße 8,29664 Walsrode,Stadt Walsrode,1,27,
3358024,Goethestraße,Walsrode OT Benefeld,[1 - 11],133,0133 Benefeld Ost,133 - Benefeld Ost,Cordinger Straße 39,29699 Walsrode,Stadt Walsrode,1,11,
3358024,Goldweg,Walsrode OT Honerdingen,[1 - 10],125,0125 Honerdingen,125 - Honerdingen,Dorfallee 55,29664 Walsrode,Stadt Walsrode,1,10,
3358024,Goosmannstraße,Walsrode,[1 - 12],118,0118 Gymnasium,118 - Gymnasium,Sunderstr. 19,29664 Walsrode,Stadt Walsrode,1,12,
3358024,Gorch-Fock-Straße,Walsrode,[1 - 30],115,"0115 Kulturzentrum ""mittendrin""","115 - Kulturzentrum ""mittendrin""",Moorstraße 89,29664 Walsrode,Stadt Walsrode,1,30,
3358024,Gottlieb-Daimler-Straße,Walsrode,[1 - 17],117,"0117 Alte Schule Vorbrück, Wahlraum 2","117 - Alte Schule Vorbrück, Wahlraum 2",Quintusstraße 35,29664 Walsrode,Stadt Walsrode,1,17,
3358024,Graesbecker Weg,Walsrode,[2 - 75],117,"0117 Alte Schule Vorbrück, Wahlraum 2","117 - Alte Schule Vorbrück, Wahlraum 2",Quintusstraße 35,29664 Walsrode,Stadt Walsrode,2,75,
3358024,Graudenzer Straße,Walsrode,[1 - 23],103,0103 Grundschule Süd,103 - Grundschule Süd,Prager Straße 2,29664 Walsrode,Stadt Walsrode,1,23,
3358024,Graudenzer Straße,Walsrode OT Bomlitz,[1 - 7],131,0131 Bomlitz Ost,131 - Bomlitz Ost,August-Wolff-Straße 3,29699 Walsrode,Stadt Walsrode,1,7,
3358024,Grenzweg,Walsrode OT Borg,[1 - 32],135,0135 Borg-Cordingen,135 - Borg-Cordingen,Borger Straße 30,29699 Walsrode,Stadt Walsrode,1,32,
3358024,Grewenkamp,Walsrode OT Düshorn,[1 - 11],127,0127 Düshorn,127 - Düshorn,Auf dem Kamp 8,29664 Walsrode,Stadt Walsrode,1,11,
3358024,Groß Eilstorf,Walsrode OT Groß Eilstorf,[3 - 98],112,0112 Groß Eilstorf,112 - Groß Eilstorf,Groß Eilstorf 82,29664 Walsrode,Stadt Walsrode,3,98,
3358024,Große Schneede,Walsrode OT Benzen,[1 - 24],126,0126 Benzen,126 - Benzen,Benzen 82,29664 Walsrode,Stadt Walsrode,1,24,
3358024,Großer Graben,Walsrode,[1 - 27],118,0118 Gymnasium,118 - Gymnasium,Sunderstr. 19,29664 Walsrode,Stadt Walsrode,1,27,
3358024,Großer Kamp,Walsrode OT Jarlingen,[1 - 45],137,0137 Ahrsen-Jarlingen,137 - Ahrsen-Jarlingen,Kettenburger Weg 2 A,29699 Walsrode,Stadt Walsrode,1,45,
3358024,Grüner Weg,Walsrode OT Honerdingen,[36 - 102],125,0125 Honerdingen,125 - Honerdingen,Dorfallee 55,29664 Walsrode,Stadt Walsrode,36,102,
3358024,Grünstraße,Walsrode,[1 - 28],118,0118 Gymnasium,118 - Gymnasium,Sunderstr. 19,29664 Walsrode,Stadt Walsrode,1,28,
3358024,Grütterstraße,Walsrode,[1 - 24],118,0118 Gymnasium,118 - Gymnasium,Sunderstr. 19,29664 Walsrode,Stadt Walsrode,1,24,
3358024,Gut Graesbeck,Walsrode,[0 - 999 X],117,"0117 Alte Schule Vorbrück, Wahlraum 2","117 - Alte Schule Vorbrück, Wahlraum 2",Quintusstraße 35,29664 Walsrode,Stadt Walsrode,0,999,
3358024,Gut Hilperdingen,Walsrode,[1 - 999 X] ungerade,116,"0116 Alte Schule Vorbrück, Wahlraum 1","116 - Alte Schule Vorbrück, Wahlraum 1",Quintusstraße 35,29664 Walsrode,Stadt Walsrode,1,999,ungerade
3358024,Haberskamp,Walsrode,[1 - 13],114,0114 Grundschule am Markt,114 - Grundschule am Markt,Marktstraße 11,29664 Walsrode,Stadt Walsrode,1,13,
3358024,Hamwiede,Walsrode OT Hamwiede,[1 - 114],104,0104 Hamwiede,104 - Hamwiede,Hamwiede 52,29664 Walsrode,Stadt Walsrode,1,114,
3358024,Hangweg,Walsrode,[1 - 12],102,"0102 Hans-Brüggemann-Schule, Wahlraum 2","102 - Hans-Brüggemann-Schule, Wahlraum 2",Brüggemannstraße 8,29664 Walsrode,Stadt Walsrode,1,12,
3358024,Hangweg,Walsrode OT Uetzingen,[1 - 32],136,0136 Uetzingen,136 - Uetzingen,Walsroder Straße 110,29699 Walsrode,Stadt Walsrode,1,32,
3358024,Hannoversche Straße,Walsrode,[1 - 70],101,"0101 Hans-Brüggemann-Schule, Wahlraum 1","101 - Hans-Brüggemann-Schule, Wahlraum 1",Brüggemannstraße 8,29664 Walsrode,Stadt Walsrode,1,70,
3358024,Hanns-Hoerbiger-Straße,Walsrode,[1 - 11],117,"0117 Alte Schule Vorbrück, Wahlraum 2","117 - Alte Schule Vorbrück, Wahlraum 2",Quintusstraße 35,29664 Walsrode,Stadt Walsrode,1,11,
3358024,Hans-Böckler-Straße,Walsrode OT Bomlitz,[1 - 49],132,0132 Bomlitz West,132 - Bomlitz West,Papiermacherkamp 27,29699 Walsrode,Stadt Walsrode,1,49,
3358024,Hasberg,Walsrode OT Kroge,[1 - 53 A],138,0138 Bommelsen-Kroge,138 - Bommelsen-Kroge,Bosselsmoor 10,29699 Walsrode,Stadt Walsrode,1,53,
3358024,Haydnstraße,Walsrode,[1 - 35],116,"0116 Alte Schule Vorbrück, Wahlraum 1","116 - Alte Schule Vorbrück, Wahlraum 1",Quintusstraße 35,29664 Walsrode,Stadt Walsrode,1,35,
3358024,Heckenbergs Kamp,Walsrode,[2 - 8],103,0103 Grundschule Süd,103 - Grundschule Süd,Prager Straße 2,29664 Walsrode,Stadt Walsrode,2,8,
3358024,Hedwig-Dohm-Straße,Walsrode,[1 - 6],117,"0117 Alte Schule Vorbrück, Wahlraum 2","117 - Alte Schule Vorbrück, Wahlraum 2",Quintusstraße 35,29664 Walsrode,Stadt Walsrode,1,6,
3358024,Heinestraße,Walsrode,[1 - 29],115,"0115 Kulturzentrum ""mittendrin""","115 - Kulturzentrum ""mittendrin""",Moorstraße 89,29664 Walsrode,Stadt Walsrode,1,29,
3358024,Heinrich-Heine-Straße,Walsrode OT Benefeld,[2 - 11],133,0133 Benefeld Ost,133 - Benefeld Ost,Cordinger Straße 39,29699 Walsrode,Stadt Walsrode,2,11,
3358024,Heinrich-Hertz-Straße,Walsrode,[1 - 13],117,"0117 Alte Schule Vorbrück, Wahlraum 2","117 - Alte Schule Vorbrück, Wahlraum 2",Quintusstraße 35,29664 Walsrode,Stadt Walsrode,1,13,
3358024,Heinsweg,Walsrode OT Jarlingen,[1 - 1 A] ungerade,137,0137 Ahrsen-Jarlingen,137 - Ahrsen-Jarlingen,Kettenburger Weg 2 A,29699 Walsrode,Stadt Walsrode,1,1,ungerade
3358024,Hellberger Weg,Walsrode OT Düshorn,[1 - 4],127,0127 Düshorn,127 - Düshorn,Auf dem Kamp 8,29664 Walsrode,Stadt Walsrode,1,4,
3358024,Helmsen,Walsrode OT Vethem,[1 - 4],105,0105 Vethem,105 - Vethem,Vethem 57,29664 Walsrode,Stadt Walsrode,1,4,
3358024,Helmser Kirchweg,Walsrode,[1 - 12],101,"0101 Hans-Brüggemann-Schule, Wahlraum 1","101 - Hans-Brüggemann-Schule, Wahlraum 1",Brüggemannstraße 8,29664 Walsrode,Stadt Walsrode,1,12,
3358024,Hermann-Löns-Straße,Walsrode,[1 - 23],114,0114 Grundschule am Markt,114 - Grundschule am Markt,Marktstraße 11,29664 Walsrode,Stadt Walsrode,1,23,
3358024,Hermann-Löns-Straße,Walsrode OT Benefeld,[1 - 18 A],133,0133 Benefeld Ost,133 - Benefeld Ost,Cordinger Straße 39,29699 Walsrode,Stadt Walsrode,1,18,
3358024,Hermine-Overbeck-Rohte-Ring,Walsrode,[1 - 22],103,0103 Grundschule Süd,103 - Grundschule Süd,Prager Straße 2,29664 Walsrode,Stadt Walsrode,1,22,
3358024,Hesternworth,Walsrode OT Düshorn,[1 - 8],127,0127 Düshorn,127 - Düshorn,Auf dem Kamp 8,29664 Walsrode,Stadt Walsrode,1,8,
3358024,Hibbinger Straße,Walsrode,[1 - 23],115,"0115 Kulturzentrum ""mittendrin""","115 - Kulturzentrum ""mittendrin""",Moorstraße 89,29664 Walsrode,Stadt Walsrode,1,23,
3358024,Hillenrieth,Walsrode OT Bomlitz,[1 - 12],131,0131 Bomlitz Ost,131 - Bomlitz Ost,August-Wolff-Straße 3,29699 Walsrode,Stadt Walsrode,1,12,
3358024,Hilperdinger Weg,Walsrode,[1 - 53 A],116,"0116 Alte Schule Vorbrück, Wahlraum 1","116 - Alte Schule Vorbrück, Wahlraum 1",Quintusstraße 35,29664 Walsrode,Stadt Walsrode,1,53,
3358024,Hindenburgplatz,Walsrode OT Bomlitz,[1 - 15 A],132,0132 Bomlitz West,132 - Bomlitz West,Papiermacherkamp 27,29699 Walsrode,Stadt Walsrode,1,15,
3358024,Hinrichsweg,Walsrode,[2 - 8] gerade,115,"0115 Kulturzentrum ""mittendrin""","115 - Kulturzentrum ""mittendrin""",Moorstraße 89,29664 Walsrode,Stadt Walsrode,2,8,gerade
3358024,Hinter dem Friedhof,Walsrode,[2 - 6] gerade,103,0103 Grundschule Süd,103 - Grundschule Süd,Prager Straße 2,29664 Walsrode,Stadt Walsrode,2,6,gerade
3358024,Hinter den Höfen,Walsrode,[2 - 13],116,"0116 Alte Schule Vorbrück, Wahlraum 1","116 - Alte Schule Vorbrück, Wahlraum 1",Quintusstraße 35,29664 Walsrode,Stadt Walsrode,2,13,
3358024,Hinter Lodemanns Garten,Walsrode,[1 - 61],115,"0115 Kulturzentrum ""mittendrin""","115 - Kulturzentrum ""mittendrin""",Moorstraße 89,29664 Walsrode,Stadt Walsrode,1,61,
3358024,Hinter Meikens Scheune,Walsrode OT Düshorn,[1 - 8],127,0127 Düshorn,127 - Düshorn,Auf dem Kamp 8,29664 Walsrode,Stadt Walsrode,1,8,
3358024,Hinterm Felde,Walsrode OT Uetzingen,1,136,0136 Uetzingen,136 - Uetzingen,Walsroder Straße 110,29699 Walsrode,Stadt Walsrode,1,1,
3358024,Hodenhagener Straße,Walsrode OT Düshorn,[1 - 7],127,0127 Düshorn,127 - Düshorn,Auf dem Kamp 8,29664 Walsrode,Stadt Walsrode,1,7,
3358024,Hof Meinerdingen,Walsrode OT Honerdingen,[1 - 13] ungerade,125,0125 Honerdingen,125 - Honerdingen,Dorfallee 55,29664 Walsrode,Stadt Walsrode,1,13,ungerade
3358024,Holbeinstraße,Walsrode,[1 - 9] ungerade,117,"0117 Alte Schule Vorbrück, Wahlraum 2","117 - Alte Schule Vorbrück, Wahlraum 2",Quintusstraße 35,29664 Walsrode,Stadt Walsrode,1,9,ungerade
3358024,Hollige,Walsrode OT Hollige,[1 - 69],108,0108 Hollige,108 - Hollige,Hollige 22 A,29664 Walsrode,Stadt Walsrode,1,69,
3358024,Holunderstraße,Walsrode OT Bomlitz,[1 - 21],131,0131 Bomlitz Ost,131 - Bomlitz Ost,August-Wolff-Straße 3,29699 Walsrode,Stadt Walsrode,1,21,
3358024,Holunderweg,Walsrode,[1 - 42],102,"0102 Hans-Brüggemann-Schule, Wahlraum 2","102 - Hans-Brüggemann-Schule, Wahlraum 2",Brüggemannstraße 8,29664 Walsrode,Stadt Walsrode,1,42,
3358024,Home24-Straße,Walsrode OT Benzen,1,126,0126 Benzen,126 - Benzen,Benzen 82,29664 Walsrode,Stadt Walsrode,1,1,
3358024,Honerdingen,Walsrode OT Honerdingen,[8 A - 125],125,0125 Honerdingen,125 - Honerdingen,Dorfallee 55,29664 Walsrode,Stadt Walsrode,8,125,
3358024,Horstheide,Walsrode,[1 - 23] ungerade,103,0103 Grundschule Süd,103 - Grundschule Süd,Prager Straße 2,29664 Walsrode,Stadt Walsrode,1,23,ungerade
3358024,Horststraße,Walsrode,[1 - 45],114,0114 Grundschule am Markt,114 - Grundschule am Markt,Marktstraße 11,29664 Walsrode,Stadt Walsrode,1,45,
3358024,Horststraße,Walsrode OT Bomlitz,[1 - 23],132,0132 Bomlitz West,132 - Bomlitz West,Papiermacherkamp 27,29699 Walsrode,Stadt Walsrode,1,23,
3358024,Hülsenbrook,Walsrode OT Bomlitz,[1 - 17],131,0131 Bomlitz Ost,131 - Bomlitz Ost,August-Wolff-Straße 3,29699 Walsrode,Stadt Walsrode,1,17,
3358024,Hünzingen,Walsrode OT Hünzingen,[1 - 153],124,0124 Hünzingen,124 - Hünzingen,Hünzingen 3,29664 Walsrode,Stadt Walsrode,1,153,
3358024,Idinger Weg,Walsrode OT Uetzingen,[1 - 7] ungerade,136,0136 Uetzingen,136 - Uetzingen,Walsroder Straße 110,29699 Walsrode,Stadt Walsrode,1,7,ungerade
3358024,Idsingen,Walsrode OT Idsingen,[1 - 36],120,0120 Idsingen,120 - Idsingen,Idsingen 31,29664 Walsrode,Stadt Walsrode,1,36,
3358024,Ilexweg,Walsrode,[1 - 12],102,"0102 Hans-Brüggemann-Schule, Wahlraum 2","102 - Hans-Brüggemann-Schule, Wahlraum 2",Brüggemannstraße 8,29664 Walsrode,Stadt Walsrode,1,12,
3358024,Im Fliederwinkel,Walsrode OT Bomlitz,[1 - 11],131,0131 Bomlitz Ost,131 - Bomlitz Ost,August-Wolff-Straße 3,29699 Walsrode,Stadt Walsrode,1,11,
3358024,Im Hagen,Walsrode OT Benefeld,[1 - 80],133,0133 Benefeld Ost,133 - Benefeld Ost,Cordinger Straße 39,29699 Walsrode,Stadt Walsrode,1,80,
3358024,Im Hegebusch,Walsrode OT Benefeld,[1 - 25],133,0133 Benefeld Ost,133 - Benefeld Ost,Cordinger Straße 39,29699 Walsrode,Stadt Walsrode,1,25,
3358024,Im Kleinen Moore,Walsrode OT Honerdingen,[21 - 23],125,0125 Honerdingen,125 - Honerdingen,Dorfallee 55,29664 Walsrode,Stadt Walsrode,21,23,
3358024,Im Löverschen,Walsrode OT Ahrsen,[1 - 8],137,0137 Ahrsen-Jarlingen,137 - Ahrsen-Jarlingen,Kettenburger Weg 2 A,29699 Walsrode,Stadt Walsrode,1,8,
3358024,Im Löverschen,Walsrode OT Bommelsen,[10 - 12] gerade,138,0138 Bommelsen-Kroge,138 - Bommelsen-Kroge,Bosselsmoor 10,29699 Walsrode,Stadt Walsrode,10,12,gerade
3358024,Im Moore,Walsrode,[1 - 44],117,"0117 Alte Schule Vorbrück, Wahlraum 2","117 - Alte Schule Vorbrück, Wahlraum 2",Quintusstraße 35,29664 Walsrode,Stadt Walsrode,1,44,
3358024,Im Sandgarten,Walsrode,[1 - 21],103,0103 Grundschule Süd,103 - Grundschule Süd,Prager Straße 2,29664 Walsrode,Stadt Walsrode,1,21,
3358024,Im Schlage,Walsrode OT Honerdingen,[1 - 26],125,0125 Honerdingen,125 - Honerdingen,Dorfallee 55,29664 Walsrode,Stadt Walsrode,1,26,
3358024,Im Wiesengrund,Walsrode OT Düshorn,[1 - 9],127,0127 Düshorn,127 - Düshorn,Auf dem Kamp 8,29664 Walsrode,Stadt Walsrode,1,9,
3358024,In der Barckheide,Walsrode OT Bomlitz,[2 - 59],131,0131 Bomlitz Ost,131 - Bomlitz Ost,August-Wolff-Straße 3,29699 Walsrode,Stadt Walsrode,2,59,
3358024,Joh.-Seb.-Bach-Straße,Walsrode OT Benefeld,[1 - 12],133,0133 Benefeld Ost,133 - Benefeld Ost,Cordinger Straße 39,29699 Walsrode,Stadt Walsrode,1,12,
3358024,Kammererstraße,Walsrode,[1 - 28],101,"0101 Hans-Brüggemann-Schule, Wahlraum 1","101 - Hans-Brüggemann-Schule, Wahlraum 1",Brüggemannstraße 8,29664 Walsrode,Stadt Walsrode,1,28,
3358024,Kapellenkamp,Walsrode OT Düshorn,[1 - 35],127,0127 Düshorn,127 - Düshorn,Auf dem Kamp 8,29664 Walsrode,Stadt Walsrode,1,35,
3358024,Kastanienweg,Walsrode,[2 - 16],102,"0102 Hans-Brüggemann-Schule, Wahlraum 2","102 - Hans-Brüggemann-Schule, Wahlraum 2",Brüggemannstraße 8,29664 Walsrode,Stadt Walsrode,2,16,
3358024,Kastanienweg,Walsrode OT Bomlitz,[1 - 8],131,0131 Bomlitz Ost,131 - Bomlitz Ost,August-Wolff-Straße 3,29699 Walsrode,Stadt Walsrode,1,8,
3358024,Käthe-Kollwitz-Straße,Walsrode,[1 - 22],117,"0117 Alte Schule Vorbrück, Wahlraum 2","117 - Alte Schule Vorbrück, Wahlraum 2",Quintusstraße 35,29664 Walsrode,Stadt Walsrode,1,22,
3358024,Käthe-Kollwitz-Weg,Walsrode OT Bomlitz,[1 - 19],132,0132 Bomlitz West,132 - Bomlitz West,Papiermacherkamp 27,29699 Walsrode,Stadt Walsrode,1,19,
3358024,Kepicer Weg,Walsrode OT Bomlitz,[1 - 16],131,0131 Bomlitz Ost,131 - Bomlitz Ost,August-Wolff-Straße 3,29699 Walsrode,Stadt Walsrode,1,16,
3358024,Kettenburger Weg,Walsrode OT Jarlingen,[1 - 12],137,0137 Ahrsen-Jarlingen,137 - Ahrsen-Jarlingen,Kettenburger Weg 2 A,29699 Walsrode,Stadt Walsrode,1,12,
3358024,Kiefernweg,Walsrode OT Düshorn,[1 - 4],127,0127 Düshorn,127 - Düshorn,Auf dem Kamp 8,29664 Walsrode,Stadt Walsrode,1,4,
3358024,Kirchboitzen,Walsrode OT Kirchboitzen,[1 - 222],110,0110 Kirchboitzen,110 - Kirchboitzen,Kirchboitzen 131,29664 Walsrode,Stadt Walsrode,1,222,
3358024,Kirchenweg,Walsrode OT Bomlitz,[1 - 8],132,0132 Bomlitz West,132 - Bomlitz West,Papiermacherkamp 27,29699 Walsrode,Stadt Walsrode,1,8,
3358024,Kirchplatz,Walsrode,[1 -3 - 13],118,0118 Gymnasium,118 - Gymnasium,Sunderstr. 19,29664 Walsrode,Stadt Walsrode,1,13,
3358024,Kirchstraße,Walsrode OT Benefeld,[1 - 24],133,0133 Benefeld Ost,133 - Benefeld Ost,Cordinger Straße 39,29699 Walsrode,Stadt Walsrode,1,24,
3358024,Kirchstraße,Walsrode OT Düshorn,[1 - 15],127,0127 Düshorn,127 - Düshorn,Auf dem Kamp 8,29664 Walsrode,Stadt Walsrode,1,15,
3358024,Klaus-Groth-Winkel,Walsrode,[1 - 4],114,0114 Grundschule am Markt,114 - Grundschule am Markt,Marktstraße 11,29664 Walsrode,Stadt Walsrode,1,4,
3358024,Klein Eilstorf,Walsrode OT Klein Eilstorf,[1 - 50],111,0111 Klein Eilstorf,111 - Klein Eilstorf,Klein Eilstorf 41,29664 Walsrode,Stadt Walsrode,1,50,
3358024,Klein-Harler-Straße,Walsrode OT Bommelsen,[29 - 31] ungerade,138,0138 Bommelsen-Kroge,138 - Bommelsen-Kroge,Bosselsmoor 10,29699 Walsrode,Stadt Walsrode,29,31,ungerade
3358024,Klein-Harler-Straße,Walsrode OT Kroge,[1 - 27],138,0138 Bommelsen-Kroge,138 - Bommelsen-Kroge,Bosselsmoor 10,29699 Walsrode,Stadt Walsrode,1,27,
3358024,Kleiner Graben,Walsrode,[1 - 24],118,0118 Gymnasium,118 - Gymnasium,Sunderstr. 19,29664 Walsrode,Stadt Walsrode,1,24,
3358024,Königsberger Straße,Walsrode OT Bomlitz,[1 - 6],131,0131 Bomlitz Ost,131 - Bomlitz Ost,August-Wolff-Straße 3,29699 Walsrode,Stadt Walsrode,1,6,
3358024,Königsberger Weg,Walsrode OT Düshorn,[1 - 6],127,0127 Düshorn,127 - Düshorn,Auf dem Kamp 8,29664 Walsrode,Stadt Walsrode,1,6,
3358024,Kornblumenweg,Walsrode,[1 - 5],115,"0115 Kulturzentrum ""mittendrin""","115 - Kulturzentrum ""mittendrin""",Moorstraße 89,29664 Walsrode,Stadt Walsrode,1,5,
3358024,Kotte Kamp,Walsrode OT Düshorn,[1 - 15],127,0127 Düshorn,127 - Düshorn,Auf dem Kamp 8,29664 Walsrode,Stadt Walsrode,1,15,
3358024,Koveler Straße,Walsrode,[1 - 39],115,"0115 Kulturzentrum ""mittendrin""","115 - Kulturzentrum ""mittendrin""",Moorstraße 89,29664 Walsrode,Stadt Walsrode,1,39,
3358024,Kreienried,Walsrode OT Düshorn,[1 - 30],127,0127 Düshorn,127 - Düshorn,Auf dem Kamp 8,29664 Walsrode,Stadt Walsrode,1,30,
3358024,Krelingen,Walsrode OT Krelingen,[1 - 234],129,0129 Krelingen,129 - Krelingen,Krelingen 157,29664 Walsrode,Stadt Walsrode,1,234,
3358024,Kreyengrund,Walsrode,[1 - 27],118,0118 Gymnasium,118 - Gymnasium,Sunderstr. 19,29664 Walsrode,Stadt Walsrode,1,27,
3358024,Kronsnest,Walsrode OT Hamwiede,1,104,0104 Hamwiede,104 - Hamwiede,Hamwiede 52,29664 Walsrode,Stadt Walsrode,1,1,
3358024,Kupferweg,Walsrode OT Honerdingen,[1 - 4],125,0125 Honerdingen,125 - Honerdingen,Dorfallee 55,29664 Walsrode,Stadt Walsrode,1,4,
3358024,Kurze Straße,Walsrode,[1 - 6],118,0118 Gymnasium,118 - Gymnasium,Sunderstr. 19,29664 Walsrode,Stadt Walsrode,1,6,
3358024,Kurze Straße,Walsrode OT Bomlitz,[1 - 2],132,0132 Bomlitz West,132 - Bomlitz West,Papiermacherkamp 27,29699 Walsrode,Stadt Walsrode,1,2,
3358024,Küsterberg,Walsrode OT Düshorn,[1 - 20],127,0127 Düshorn,127 - Düshorn,Auf dem Kamp 8,29664 Walsrode,Stadt Walsrode,1,20,
3358024,Küstriner Straße,Walsrode OT Bomlitz,[1 - 22],131,0131 Bomlitz Ost,131 - Bomlitz Ost,August-Wolff-Straße 3,29699 Walsrode,Stadt Walsrode,1,22,
3358024,Lange Straße,Walsrode,[2 - 1315],114,0114 Grundschule am Markt,114 - Grundschule am Markt,Marktstraße 11,29664 Walsrode,Stadt Walsrode,2,1315,
3358024,Leitnantshof,Walsrode OT Uetzingen,[1 - 6 A],136,0136 Uetzingen,136 - Uetzingen,Walsroder Straße 110,29699 Walsrode,Stadt Walsrode,1,6,
3358024,Lerchenweg,Walsrode OT Düshorn,[1 - 4],127,0127 Düshorn,127 - Düshorn,Auf dem Kamp 8,29664 Walsrode,Stadt Walsrode,1,4,
3358024,Lindenring,Walsrode OT Bomlitz,[1 - 49],131,0131 Bomlitz Ost,131 - Bomlitz Ost,August-Wolff-Straße 3,29699 Walsrode,Stadt Walsrode,1,49,
3358024,Lindenstraße,Walsrode,[1 - 40],102,"0102 Hans-Brüggemann-Schule, Wahlraum 2","102 - Hans-Brüggemann-Schule, Wahlraum 2",Brüggemannstraße 8,29664 Walsrode,Stadt Walsrode,1,40,
3358024,Lise-Meitner-Straße,Walsrode,[1 - 18],117,"0117 Alte Schule Vorbrück, Wahlraum 2","117 - Alte Schule Vorbrück, Wahlraum 2",Quintusstraße 35,29664 Walsrode,Stadt Walsrode,1,18,
3358024,Lisztstraße,Walsrode,[1 - 5],116,"0116 Alte Schule Vorbrück, Wahlraum 1","116 - Alte Schule Vorbrück, Wahlraum 1",Quintusstraße 35,29664 Walsrode,Stadt Walsrode,1,5,
3358024,Lohbergs Kamp,Walsrode,[3 - 35],103,0103 Grundschule Süd,103 - Grundschule Süd,Prager Straße 2,29664 Walsrode,Stadt Walsrode,3,35,
3358024,Lohheider Straße,Walsrode OT Benefeld,[1 - 38],134,0134 Benefeld West,134 - Benefeld West,Niedersachsenplatz 1,29699 Walsrode,Stadt Walsrode,1,38,
3358024,Lönsheide,Walsrode OT Uetzingen,[1 - 14],136,0136 Uetzingen,136 - Uetzingen,Walsroder Straße 110,29699 Walsrode,Stadt Walsrode,1,14,
3358024,Ludwig-Harms-Straße,Walsrode,[1 - 18 C],101,"0101 Hans-Brüggemann-Schule, Wahlraum 1","101 - Hans-Brüggemann-Schule, Wahlraum 1",Brüggemannstraße 8,29664 Walsrode,Stadt Walsrode,1,18,
3358024,Ludwig-Jahn-Straße,Walsrode OT Benefeld,[1 - 14],134,0134 Benefeld West,134 - Benefeld West,Niedersachsenplatz 1,29699 Walsrode,Stadt Walsrode,1,14,
3358024,Ludwig-Rahlfs-Straße,Walsrode OT Düshorn,[1 - 5],127,0127 Düshorn,127 - Düshorn,Auf dem Kamp 8,29664 Walsrode,Stadt Walsrode,1,5,
3358024,Margeritenwinkel,Walsrode,[1 - 26],115,"0115 Kulturzentrum ""mittendrin""","115 - Kulturzentrum ""mittendrin""",Moorstraße 89,29664 Walsrode,Stadt Walsrode,1,26,
3358024,Marienstein,Walsrode OT Klein Eilstorf,[1 - 1 B] ungerade,111,0111 Klein Eilstorf,111 - Klein Eilstorf,Klein Eilstorf 41,29664 Walsrode,Stadt Walsrode,1,1,ungerade
3358024,Marktstraße,Walsrode,[1 - 11] ungerade,114,0114 Grundschule am Markt,114 - Grundschule am Markt,Marktstraße 11,29664 Walsrode,Stadt Walsrode,1,11,ungerade
3358024,Max-Planck-Straße,Walsrode,[1 - 8],117,"0117 Alte Schule Vorbrück, Wahlraum 2","117 - Alte Schule Vorbrück, Wahlraum 2",Quintusstraße 35,29664 Walsrode,Stadt Walsrode,1,8,
3358024,Meinerdinger Kirchweg,Walsrode,[1 - 20],117,"0117 Alte Schule Vorbrück, Wahlraum 2","117 - Alte Schule Vorbrück, Wahlraum 2",Quintusstraße 35,29664 Walsrode,Stadt Walsrode,1,20,
3358024,Meirehmer Berg,Walsrode,[1 A - 65],103,0103 Grundschule Süd,103 - Grundschule Süd,Prager Straße 2,29664 Walsrode,Stadt Walsrode,1,65,
3358024,Meirehmer Straße,Walsrode,[2 - 36],103,0103 Grundschule Süd,103 - Grundschule Süd,Prager Straße 2,29664 Walsrode,Stadt Walsrode,2,36,
3358024,Meisenweg,Walsrode OT Düshorn,[1 - 15],127,0127 Düshorn,127 - Düshorn,Auf dem Kamp 8,29664 Walsrode,Stadt Walsrode,1,15,
3358024,Memelstraße,Walsrode,[1 - 18],103,0103 Grundschule Süd,103 - Grundschule Süd,Prager Straße 2,29664 Walsrode,Stadt Walsrode,1,18,
3358024,Meyerhof,Walsrode OT Ahrsen,[1 - 11],137,0137 Ahrsen-Jarlingen,137 - Ahrsen-Jarlingen,Kettenburger Weg 2 A,29699 Walsrode,Stadt Walsrode,1,11,
3358024,Mohnblumenweg,Walsrode,[2 - 24],115,"0115 Kulturzentrum ""mittendrin""","115 - Kulturzentrum ""mittendrin""",Moorstraße 89,29664 Walsrode,Stadt Walsrode,2,24,
3358024,Moorstraße,Walsrode,[1 - 102],118,0118 Gymnasium,118 - Gymnasium,Sunderstr. 19,29664 Walsrode,Stadt Walsrode,1,102,
3358024,Moorwiese,Walsrode,[1 - 22],117,"0117 Alte Schule Vorbrück, Wahlraum 2","117 - Alte Schule Vorbrück, Wahlraum 2",Quintusstraße 35,29664 Walsrode,Stadt Walsrode,1,22,
3358024,Mozartstraße,Walsrode,[1 - 25],116,"0116 Alte Schule Vorbrück, Wahlraum 1","116 - Alte Schule Vorbrück, Wahlraum 1",Quintusstraße 35,29664 Walsrode,Stadt Walsrode,1,25,
3358024,Mühlenbruchweg,Walsrode OT Düshorn,[1 - 2],127,0127 Düshorn,127 - Düshorn,Auf dem Kamp 8,29664 Walsrode,Stadt Walsrode,1,2,
3358024,Mühlenstraße,Walsrode OT Düshorn,[1 - 46],127,0127 Düshorn,127 - Düshorn,Auf dem Kamp 8,29664 Walsrode,Stadt Walsrode,1,46,
3358024,Neue Schäferei,Walsrode OT Bomlitz,[1 - 11] ungerade,132,0132 Bomlitz West,132 - Bomlitz West,Papiermacherkamp 27,29699 Walsrode,Stadt Walsrode,1,11,ungerade
3358024,Neue Straße,Walsrode,[1 - 25],114,0114 Grundschule am Markt,114 - Grundschule am Markt,Marktstraße 11,29664 Walsrode,Stadt Walsrode,1,25,
3358024,Neue Straße,Walsrode OT Bomlitz,[1 - 26],132,0132 Bomlitz West,132 - Bomlitz West,Papiermacherkamp 27,29699 Walsrode,Stadt Walsrode,1,26,
3358024,Neuer Weg,Walsrode OT Honerdingen,[1 - 14],125,0125 Honerdingen,125 - Honerdingen,Dorfallee 55,29664 Walsrode,Stadt Walsrode,1,14,
3358024,Niedersachsenplatz,Walsrode OT Benefeld,[1 - 4],134,0134 Benefeld West,134 - Benefeld West,Niedersachsenplatz 1,29699 Walsrode,Stadt Walsrode,1,4,
3358024,Niefelfeld,Walsrode,[1 - 14],103,0103 Grundschule Süd,103 - Grundschule Süd,Prager Straße 2,29664 Walsrode,Stadt Walsrode,1,14,
3358024,Nordkampen,Walsrode OT Nordkampen,[1 - 131],106,0106 Nordkampen,106 - Nordkampen,Nordkampen 95,29664 Walsrode,Stadt Walsrode,1,131,
3358024,Nordsunderberg,Walsrode,[1 - 24],118,0118 Gymnasium,118 - Gymnasium,Sunderstr. 19,29664 Walsrode,Stadt Walsrode,1,24,
3358024,Oskar-Wolff-Straße,Walsrode,[1 - 44],114,0114 Grundschule am Markt,114 - Grundschule am Markt,Marktstraße 11,29664 Walsrode,Stadt Walsrode,1,44,
3358024,Ostdeutsche Allee,Walsrode,[1 - 6],116,"0116 Alte Schule Vorbrück, Wahlraum 1","116 - Alte Schule Vorbrück, Wahlraum 1",Quintusstraße 35,29664 Walsrode,Stadt Walsrode,1,6,
3358024,Osterkamp,Walsrode,[1 - 44],103,0103 Grundschule Süd,103 - Grundschule Süd,Prager Straße 2,29664 Walsrode,Stadt Walsrode,1,44,
3358024,Ostlandring,Walsrode OT Düshorn,[2 - 29],127,0127 Düshorn,127 - Düshorn,Auf dem Kamp 8,29664 Walsrode,Stadt Walsrode,2,29,
3358024,Ostmarkstraße,Walsrode,[2 - 20],103,0103 Grundschule Süd,103 - Grundschule Süd,Prager Straße 2,29664 Walsrode,Stadt Walsrode,2,20,
3358024,Otto-Hahn-Straße,Walsrode,[1 - 10 A],117,"0117 Alte Schule Vorbrück, Wahlraum 2","117 - Alte Schule Vorbrück, Wahlraum 2",Quintusstraße 35,29664 Walsrode,Stadt Walsrode,1,10,
3358024,Owe,Walsrode OT Hamwiede,1,104,0104 Hamwiede,104 - Hamwiede,Hamwiede 52,29664 Walsrode,Stadt Walsrode,1,1,
3358024,Papiermacherkamp,Walsrode OT Bomlitz,[1 - 38],132,0132 Bomlitz West,132 - Bomlitz West,Papiermacherkamp 27,29699 Walsrode,Stadt Walsrode,1,38,
3358024,Pappelweg,Walsrode,[2 - 24],102,"0102 Hans-Brüggemann-Schule, Wahlraum 2","102 - Hans-Brüggemann-Schule, Wahlraum 2",Brüggemannstraße 8,29664 Walsrode,Stadt Walsrode,2,24,
3358024,Parkweg,Walsrode,[1 - 12],103,0103 Grundschule Süd,103 - Grundschule Süd,Prager Straße 2,29664 Walsrode,Stadt Walsrode,1,12,
3358024,Paschewinkel,Walsrode OT Düshorn,[1 - 6],127,0127 Düshorn,127 - Düshorn,Auf dem Kamp 8,29664 Walsrode,Stadt Walsrode,1,6,
3358024,Pestalozzistraße,Walsrode OT Benefeld,[1 - 20],133,0133 Benefeld Ost,133 - Benefeld Ost,Cordinger Straße 39,29699 Walsrode,Stadt Walsrode,1,20,
3358024,Platanenring,Walsrode,[1 - 87],102,"0102 Hans-Brüggemann-Schule, Wahlraum 2","102 - Hans-Brüggemann-Schule, Wahlraum 2",Brüggemannstraße 8,29664 Walsrode,Stadt Walsrode,1,87,
3358024,Pommernweg,Walsrode OT Benefeld,[2 - 24],134,0134 Benefeld West,134 - Benefeld West,Niedersachsenplatz 1,29699 Walsrode,Stadt Walsrode,2,24,
3358024,Pommernweg,Walsrode OT Düshorn,[2 - 10],127,0127 Düshorn,127 - Düshorn,Auf dem Kamp 8,29664 Walsrode,Stadt Walsrode,2,10,
3358024,Posener Straße,Walsrode,[1 - 18],103,0103 Grundschule Süd,103 - Grundschule Süd,Prager Straße 2,29664 Walsrode,Stadt Walsrode,1,18,
3358024,Poststraße,Walsrode,[1 - 13],118,0118 Gymnasium,118 - Gymnasium,Sunderstr. 19,29664 Walsrode,Stadt Walsrode,1,13,
3358024,Poststraße,Walsrode OT Benefeld,[1 - 20],133,0133 Benefeld Ost,133 - Benefeld Ost,Cordinger Straße 39,29699 Walsrode,Stadt Walsrode,1,20,
3358024,Prachterstraße,Walsrode OT Düshorn,[1 - 4],127,0127 Düshorn,127 - Düshorn,Auf dem Kamp 8,29664 Walsrode,Stadt Walsrode,1,4,
3358024,Prager Straße,Walsrode,[1 - 17],103,0103 Grundschule Süd,103 - Grundschule Süd,Prager Straße 2,29664 Walsrode,Stadt Walsrode,1,17,
3358024,Quintusstraße,Walsrode,[1 - 187],117,"0117 Alte Schule Vorbrück, Wahlraum 2","117 - Alte Schule Vorbrück, Wahlraum 2",Quintusstraße 35,29664 Walsrode,Stadt Walsrode,1,187,
3358024,Raabestraße,Walsrode,[1 - 29],115,"0115 Kulturzentrum ""mittendrin""","115 - Kulturzentrum ""mittendrin""",Moorstraße 89,29664 Walsrode,Stadt Walsrode,1,29,
3358024,Radewiesen,Walsrode,[1 - 41],118,0118 Gymnasium,118 - Gymnasium,Sunderstr. 19,29664 Walsrode,Stadt Walsrode,1,41,
3358024,Raiffeisen-Weg,Walsrode OT Groß Eilstorf,1,112,0112 Groß Eilstorf,112 - Groß Eilstorf,Groß Eilstorf 82,29664 Walsrode,Stadt Walsrode,1,1,
3358024,Rainstraße,Walsrode OT Benefeld,[2 - 20],134,0134 Benefeld West,134 - Benefeld West,Niedersachsenplatz 1,29699 Walsrode,Stadt Walsrode,2,20,
3358024,Rehrstraße,Walsrode,[3 - 18],114,0114 Grundschule am Markt,114 - Grundschule am Markt,Marktstraße 11,29664 Walsrode,Stadt Walsrode,3,18,
3358024,Rehrweg,Walsrode OT Düshorn,[3 - 10],127,0127 Düshorn,127 - Düshorn,Auf dem Kamp 8,29664 Walsrode,Stadt Walsrode,3,10,
3358024,Rembrandtwinkel,Walsrode,[1 - 16],117,"0117 Alte Schule Vorbrück, Wahlraum 2","117 - Alte Schule Vorbrück, Wahlraum 2",Quintusstraße 35,29664 Walsrode,Stadt Walsrode,1,16,
3358024,Ricarda-Huch-Straße,Walsrode,[1 - 27],114,0114 Grundschule am Markt,114 - Grundschule am Markt,Marktstraße 11,29664 Walsrode,Stadt Walsrode,1,27,
3358024,Richard-Fröhlich-Weg,Walsrode,5,116,"0116 Alte Schule Vorbrück, Wahlraum 1","116 - Alte Schule Vorbrück, Wahlraum 1",Quintusstraße 35,29664 Walsrode,Stadt Walsrode,5,5,
3358024,Rieper Straße,Walsrode OT Bommelsen,[1 - 14],138,0138 Bommelsen-Kroge,138 - Bommelsen-Kroge,Bosselsmoor 10,29699 Walsrode,Stadt Walsrode,1,14,
3358024,Ritterspornweg,Walsrode,[2 - 6],115,"0115 Kulturzentrum ""mittendrin""","115 - Kulturzentrum ""mittendrin""",Moorstraße 89,29664 Walsrode,Stadt Walsrode,2,6,
3358024,Robert-Koch-Straße,Walsrode,[1 - 8],101,"0101 Hans-Brüggemann-Schule, Wahlraum 1","101 - Hans-Brüggemann-Schule, Wahlraum 1",Brüggemannstraße 8,29664 Walsrode,Stadt Walsrode,1,8,
3358024,Rödershöfen,Walsrode OT Düshorn,[1 - 5],127,0127 Düshorn,127 - Düshorn,Auf dem Kamp 8,29664 Walsrode,Stadt Walsrode,1,5,
3358024,Rotdornweg,Walsrode,[1 - 13],102,"0102 Hans-Brüggemann-Schule, Wahlraum 2","102 - Hans-Brüggemann-Schule, Wahlraum 2",Brüggemannstraße 8,29664 Walsrode,Stadt Walsrode,1,13,
3358024,Rudolf-Diesel-Straße,Walsrode,[1 - 11],117,"0117 Alte Schule Vorbrück, Wahlraum 2","117 - Alte Schule Vorbrück, Wahlraum 2",Quintusstraße 35,29664 Walsrode,Stadt Walsrode,1,11,
3358024,Rudolf-Steiner-Straße,Walsrode OT Benefeld,[1 - 33],133,0133 Benefeld Ost,133 - Benefeld Ost,Cordinger Straße 39,29699 Walsrode,Stadt Walsrode,1,33,
3358024,Saarstraße,Walsrode,[1 - 23],101,"0101 Hans-Brüggemann-Schule, Wahlraum 1","101 - Hans-Brüggemann-Schule, Wahlraum 1",Brüggemannstraße 8,29664 Walsrode,Stadt Walsrode,1,23,
3358024,Saarweg,Walsrode OT Benefeld,[1 - 13] ungerade,134,0134 Benefeld West,134 - Benefeld West,Niedersachsenplatz 1,29699 Walsrode,Stadt Walsrode,1,13,ungerade
3358024,Schäferweg,Walsrode OT Honerdingen,[11 - 116],125,0125 Honerdingen,125 - Honerdingen,Dorfallee 55,29664 Walsrode,Stadt Walsrode,11,116,
3358024,Schafsweide,Walsrode OT Benefeld,[1 - 23],134,0134 Benefeld West,134 - Benefeld West,Niedersachsenplatz 1,29699 Walsrode,Stadt Walsrode,1,23,
3358024,Scharnhorststraße,Walsrode,[1 - 18],101,"0101 Hans-Brüggemann-Schule, Wahlraum 1","101 - Hans-Brüggemann-Schule, Wahlraum 1",Brüggemannstraße 8,29664 Walsrode,Stadt Walsrode,1,18,
3358024,Schillerstraße,Walsrode OT Benefeld,[1 - 12],133,0133 Benefeld Ost,133 - Benefeld Ost,Cordinger Straße 39,29699 Walsrode,Stadt Walsrode,1,12,
3358024,Schlehenweg,Walsrode,[2 - 6],102,"0102 Hans-Brüggemann-Schule, Wahlraum 2","102 - Hans-Brüggemann-Schule, Wahlraum 2",Brüggemannstraße 8,29664 Walsrode,Stadt Walsrode,2,6,
3358024,Schlehenworth,Walsrode OT Bomlitz,[1 - 18],131,0131 Bomlitz Ost,131 - Bomlitz Ost,August-Wolff-Straße 3,29699 Walsrode,Stadt Walsrode,1,18,
3358024,Schlesier Weg,Walsrode OT Benefeld,[2 - 40],134,0134 Benefeld West,134 - Benefeld West,Niedersachsenplatz 1,29699 Walsrode,Stadt Walsrode,2,40,
3358024,Schlesierweg,Walsrode OT Düshorn,[1 - 12],127,0127 Düshorn,127 - Düshorn,Auf dem Kamp 8,29664 Walsrode,Stadt Walsrode,1,12,
3358024,Schlüsselblumenweg,Walsrode,[1 - 23],115,"0115 Kulturzentrum ""mittendrin""","115 - Kulturzentrum ""mittendrin""",Moorstraße 89,29664 Walsrode,Stadt Walsrode,1,23,
3358024,Schmersahlstraße,Walsrode,[1 - 35],118,0118 Gymnasium,118 - Gymnasium,Sunderstr. 19,29664 Walsrode,Stadt Walsrode,1,35,
3358024,Schneeheide,Walsrode OT Schneeheide,[1 - 118],113,0113 Schneeheide,113 - Schneeheide,Schneeheide 13 C,29664 Walsrode,Stadt Walsrode,1,118,
3358024,Schubertstraße,Walsrode,[1 - 57],116,"0116 Alte Schule Vorbrück, Wahlraum 1","116 - Alte Schule Vorbrück, Wahlraum 1",Quintusstraße 35,29664 Walsrode,Stadt Walsrode,1,57,
3358024,Schulstraße,Walsrode,[1 - 124],116,"0116 Alte Schule Vorbrück, Wahlraum 1","116 - Alte Schule Vorbrück, Wahlraum 1",Quintusstraße 35,29664 Walsrode,Stadt Walsrode,1,124,
3358024,Schulstraße,Walsrode OT Bomlitz,[1 - 24],132,0132 Bomlitz West,132 - Bomlitz West,Papiermacherkamp 27,29699 Walsrode,Stadt Walsrode,1,24,
3358024,Schuppenrieth,Walsrode OT Ahrsen,1,137,0137 Ahrsen-Jarlingen,137 - Ahrsen-Jarlingen,Kettenburger Weg 2 A,29699 Walsrode,Stadt Walsrode,1,1,
3358024,Schwalbenweg,Walsrode OT Bomlitz,[1 - 4],132,0132 Bomlitz West,132 - Bomlitz West,Papiermacherkamp 27,29699 Walsrode,Stadt Walsrode,1,4,
3358024,Siedlungsstraße,Walsrode OT Benefeld,[1 - 52],134,0134 Benefeld West,134 - Benefeld West,Niedersachsenplatz 1,29699 Walsrode,Stadt Walsrode,1,52,
3358024,Sieverdingen,Walsrode OT Sieverdingen,[1 - 41],121,0121 Sieverdingen,121 - Sieverdingen,Sieverdingen 40,29664 Walsrode,Stadt Walsrode,1,41,
3358024,Sieverdinger Kirchweg,Walsrode,[1 - 31],114,0114 Grundschule am Markt,114 - Grundschule am Markt,Marktstraße 11,29664 Walsrode,Stadt Walsrode,1,31,
3358024,Silberweg,Walsrode OT Honerdingen,[1 - 8],125,0125 Honerdingen,125 - Honerdingen,Dorfallee 55,29664 Walsrode,Stadt Walsrode,1,8,
3358024,Sonnenblumenweg,Walsrode,[1 - 7],115,"0115 Kulturzentrum ""mittendrin""","115 - Kulturzentrum ""mittendrin""",Moorstraße 89,29664 Walsrode,Stadt Walsrode,1,7,
3358024,Sonnenweg,Walsrode OT Düshorn,[2 - 8] gerade,127,0127 Düshorn,127 - Düshorn,Auf dem Kamp 8,29664 Walsrode,Stadt Walsrode,2,8,gerade
3358024,Sophienstraße,Walsrode OT Düshorn,[1 - 16],127,0127 Düshorn,127 - Düshorn,Auf dem Kamp 8,29664 Walsrode,Stadt Walsrode,1,16,
3358024,Stellichte,Walsrode OT Stellichte,[1 - 204],122,0122 Stellichte,122 - Stellichte,Stellichte 137,29664 Walsrode,Stadt Walsrode,1,204,
3358024,Stettiner Straße,Walsrode OT Bomlitz,[1 - 10],131,0131 Bomlitz Ost,131 - Bomlitz Ost,August-Wolff-Straße 3,29699 Walsrode,Stadt Walsrode,1,10,
3358024,Stormstraße,Walsrode,[1 - 37],115,"0115 Kulturzentrum ""mittendrin""","115 - Kulturzentrum ""mittendrin""",Moorstraße 89,29664 Walsrode,Stadt Walsrode,1,37,
3358024,Sudetenstraße,Walsrode,[2 - 36 -38],103,0103 Grundschule Süd,103 - Grundschule Süd,Prager Straße 2,29664 Walsrode,Stadt Walsrode,2,38,
3358024,Südkampen,Walsrode OT Südkampen,[1 - 123],107,0107 Südkampen,107 - Südkampen,Südkampen 9,29664 Walsrode,Stadt Walsrode,1,123,
3358024,Sunderstraße,Walsrode,[2 - 120 A],118,0118 Gymnasium,118 - Gymnasium,Sunderstr. 19,29664 Walsrode,Stadt Walsrode,2,120,
3358024,Talblick,Walsrode,[1 - 18],118,0118 Gymnasium,118 - Gymnasium,Sunderstr. 19,29664 Walsrode,Stadt Walsrode,1,18,
3358024,Tannenstraße,Walsrode OT Bomlitz,[1 - 18],131,0131 Bomlitz Ost,131 - Bomlitz Ost,August-Wolff-Straße 3,29699 Walsrode,Stadt Walsrode,1,18,
3358024,Tannenweg,Walsrode,[1 - 14],102,"0102 Hans-Brüggemann-Schule, Wahlraum 2","102 - Hans-Brüggemann-Schule, Wahlraum 2",Brüggemannstraße 8,29664 Walsrode,Stadt Walsrode,1,14,
3358024,Thorner Straße,Walsrode,[1 - 15],103,0103 Grundschule Süd,103 - Grundschule Süd,Prager Straße 2,29664 Walsrode,Stadt Walsrode,1,15,
3358024,Tietlingen,Walsrode OT Honerdingen,[1 - 50],125,0125 Honerdingen,125 - Honerdingen,Dorfallee 55,29664 Walsrode,Stadt Walsrode,1,50,
3358024,Tietlinger Weg,Walsrode OT Honerdingen,[3 - 5] ungerade,125,0125 Honerdingen,125 - Honerdingen,Dorfallee 55,29664 Walsrode,Stadt Walsrode,3,5,ungerade
3358024,Uetzinger Kirchweg,Walsrode OT Honerdingen,[1 - 6],125,0125 Honerdingen,125 - Honerdingen,Dorfallee 55,29664 Walsrode,Stadt Walsrode,1,6,
3358024,Uetzinger Straße,Walsrode OT Honerdingen,[2 - 8] gerade,125,0125 Honerdingen,125 - Honerdingen,Dorfallee 55,29664 Walsrode,Stadt Walsrode,2,8,gerade
3358024,Uferstraße,Walsrode OT Benefeld,[1 - 60],134,0134 Benefeld West,134 - Benefeld West,Niedersachsenplatz 1,29699 Walsrode,Stadt Walsrode,1,60,
3358024,Ulmenweg,Walsrode,[1 - 17],102,"0102 Hans-Brüggemann-Schule, Wahlraum 2","102 - Hans-Brüggemann-Schule, Wahlraum 2",Brüggemannstraße 8,29664 Walsrode,Stadt Walsrode,1,17,
3358024,Verdener Straße,Walsrode,[1 - 89 A],101,"0101 Hans-Brüggemann-Schule, Wahlraum 1","101 - Hans-Brüggemann-Schule, Wahlraum 1",Brüggemannstraße 8,29664 Walsrode,Stadt Walsrode,1,89,
3358024,Vethem,Walsrode OT Vethem,[1 - 76],105,0105 Vethem,105 - Vethem,Vethem 57,29664 Walsrode,Stadt Walsrode,1,76,
3358024,Volkmannstraße,Walsrode,[1 - 13],118,0118 Gymnasium,118 - Gymnasium,Sunderstr. 19,29664 Walsrode,Stadt Walsrode,1,13,
3358024,Von-Hodenberg-Straße,Walsrode,[1 - 11],118,0118 Gymnasium,118 - Gymnasium,Sunderstr. 19,29664 Walsrode,Stadt Walsrode,1,11,
3358024,Von-Stoltzenberg-Straße,Walsrode,[1 - 11],103,0103 Grundschule Süd,103 - Grundschule Süd,Prager Straße 2,29664 Walsrode,Stadt Walsrode,1,11,
3358024,Vor dem Balken,Walsrode OT Honerdingen,[1 - 25 A],125,0125 Honerdingen,125 - Honerdingen,Dorfallee 55,29664 Walsrode,Stadt Walsrode,1,25,
3358024,Wacholderstraße,Walsrode OT Bomlitz,[1 - 12],131,0131 Bomlitz Ost,131 - Bomlitz Ost,August-Wolff-Straße 3,29699 Walsrode,Stadt Walsrode,1,12,
3358024,Wacholderweg,Walsrode OT Honerdingen,[1 - 78],125,0125 Honerdingen,125 - Honerdingen,Dorfallee 55,29664 Walsrode,Stadt Walsrode,1,78,
3358024,Waetgenstraße,Walsrode,[1 - 11],118,0118 Gymnasium,118 - Gymnasium,Sunderstr. 19,29664 Walsrode,Stadt Walsrode,1,11,
3358024,Wagnerstraße,Walsrode,[1 - 999 X],116,"0116 Alte Schule Vorbrück, Wahlraum 1","116 - Alte Schule Vorbrück, Wahlraum 1",Quintusstraße 35,29664 Walsrode,Stadt Walsrode,1,999,
3358024,Waldstraße,Walsrode OT Benefeld,[1 - 8],134,0134 Benefeld West,134 - Benefeld West,Niedersachsenplatz 1,29699 Walsrode,Stadt Walsrode,1,8,
3358024,Walsroder Straße,Walsrode OT Bomlitz,[1 - 40],132,0132 Bomlitz West,132 - Bomlitz West,Papiermacherkamp 27,29699 Walsrode,Stadt Walsrode,1,40,
3358024,Walsroder Straße,Walsrode OT Bomlitz,,136,0136 Uetzingen,136 - Uetzingen,Walsroder Straße 110,29699 Walsrode,Stadt Walsrode,0,0,
3358024,Walsroder Straße,Walsrode OT Düshorn,[2 - 15],127,0127 Düshorn,127 - Düshorn,Auf dem Kamp 8,29664 Walsrode,Stadt Walsrode,2,15,
3358024,Walsroder Straße,Walsrode OT Uetzingen,[25 - 123 A],136,0136 Uetzingen,136 - Uetzingen,Walsroder Straße 110,29699 Walsrode,Stadt Walsrode,25,123,
3358024,Walter-Christoph-Platz,Walsrode OT Benefeld,[1 - 9],134,0134 Benefeld West,134 - Benefeld West,Niedersachsenplatz 1,29699 Walsrode,Stadt Walsrode,1,9,
3358024,Wedden,Walsrode OT Düshorn,[1 - 3],127,0127 Düshorn,127 - Düshorn,Auf dem Kamp 8,29664 Walsrode,Stadt Walsrode,1,3,
3358024,Wenzinger Straße,Walsrode OT Uetzingen,[1 - 44],136,0136 Uetzingen,136 - Uetzingen,Walsroder Straße 110,29699 Walsrode,Stadt Walsrode,1,44,
3358024,Werner-von-Siemens-Str.,Walsrode,[4 - 8] gerade,117,"0117 Alte Schule Vorbrück, Wahlraum 2","117 - Alte Schule Vorbrück, Wahlraum 2",Quintusstraße 35,29664 Walsrode,Stadt Walsrode,4,8,gerade
3358024,Wernher-von-Braun-Straße,Walsrode,[1 - 20],117,"0117 Alte Schule Vorbrück, Wahlraum 2","117 - Alte Schule Vorbrück, Wahlraum 2",Quintusstraße 35,29664 Walsrode,Stadt Walsrode,1,20,
3358024,Westenholz,Walsrode OT Westenholz,[1 - 112],130,0130 Westenholz,130 - Westenholz,Westenholz 112,29664 Walsrode,Stadt Walsrode,1,112,
3358024,Westerharler Straße,Walsrode OT Bomlitz,[3 - 9] ungerade,131,0131 Bomlitz Ost,131 - Bomlitz Ost,August-Wolff-Straße 3,29699 Walsrode,Stadt Walsrode,3,9,ungerade
3358024,Westerharler Straße,Walsrode OT Bomlitz,[12 - 48] gerade,131,0131 Bomlitz Ost,131 - Bomlitz Ost,August-Wolff-Straße 3,29699 Walsrode,Stadt Walsrode,12,48,gerade
3358024,Westerharler Straße,Walsrode OT Bomlitz,[2 - 10 A] gerade,133,0133 Benefeld Ost,133 - Benefeld Ost,Cordinger Straße 39,29699 Walsrode,Stadt Walsrode,2,10,gerade
3358024,Westerharler Straße,Walsrode OT Kroge,,131,0131 Bomlitz Ost,131 - Bomlitz Ost,August-Wolff-Straße 3,29699 Walsrode,Stadt Walsrode,0,0,
3358024,Westerharler Straße,Walsrode OT Kroge,,133,0133 Benefeld Ost,133 - Benefeld Ost,Cordinger Straße 39,29699 Walsrode,Stadt Walsrode,0,0,
3358024,Westerharler Straße,Walsrode OT Kroge,[10 - 56],138,0138 Bommelsen-Kroge,138 - Bommelsen-Kroge,Bosselsmoor 10,29699 Walsrode,Stadt Walsrode,10,56,
3358024,Wiener Platz,Walsrode,[1 - 9],103,0103 Grundschule Süd,103 - Grundschule Süd,Prager Straße 2,29664 Walsrode,Stadt Walsrode,1,9,
3358024,Wiesenstraße,Walsrode,[1 - 31],118,0118 Gymnasium,118 - Gymnasium,Sunderstr. 19,29664 Walsrode,Stadt Walsrode,1,31,
3358024,Wiesenstraße,Walsrode OT Benefeld,[1 - 10],133,0133 Benefeld Ost,133 - Benefeld Ost,Cordinger Straße 39,29699 Walsrode,Stadt Walsrode,1,10,
3358024,Wiesenstraße,Walsrode OT Benefeld,[12 - 14] gerade,133,0133 Benefeld Ost,133 - Benefeld Ost,Cordinger Straße 39,29699 Walsrode,Stadt Walsrode,12,14,gerade
3358024,Wiesenstraße,Walsrode OT Benefeld,[11 - 15] ungerade,134,0134 Benefeld West,134 - Benefeld West,Niedersachsenplatz 1,29699 Walsrode,Stadt Walsrode,11,15,ungerade
3358024,Wiesenstraße,Walsrode OT Benefeld,[16 - 24],134,0134 Benefeld West,134 - Benefeld West,Niedersachsenplatz 1,29699 Walsrode,Stadt Walsrode,16,24,
3358024,Wilhelm-Asche-Weg,Walsrode OT Honerdingen,[1 - 82],125,0125 Honerdingen,125 - Honerdingen,Dorfallee 55,29664 Walsrode,Stadt Walsrode,1,82,
3358024,Wilhelm-Busch-Weg,Walsrode,[1 - 8],115,"0115 Kulturzentrum ""mittendrin""","115 - Kulturzentrum ""mittendrin""",Moorstraße 89,29664 Walsrode,Stadt Walsrode,1,8,
3358024,Winkelgasse,Walsrode,2,118,0118 Gymnasium,118 - Gymnasium,Sunderstr. 19,29664 Walsrode,Stadt Walsrode,2,2,
3358024,Winkelkamp,Walsrode,[1 - 14],103,0103 Grundschule Süd,103 - Grundschule Süd,Prager Straße 2,29664 Walsrode,Stadt Walsrode,1,14,
3358024,Witternstraße,Walsrode,[1 - 21],101,"0101 Hans-Brüggemann-Schule, Wahlraum 1","101 - Hans-Brüggemann-Schule, Wahlraum 1",Brüggemannstraße 8,29664 Walsrode,Stadt Walsrode,1,21,
3358024,Witwengarten,Walsrode OT Düshorn,[1 - 27],127,0127 Düshorn,127 - Düshorn,Auf dem Kamp 8,29664 Walsrode,Stadt Walsrode,1,27,
3358024,Worth,Walsrode,[2 - 18],118,0118 Gymnasium,118 - Gymnasium,Sunderstr. 19,29664 Walsrode,Stadt Walsrode,2,18,
3358024,Wurzelförde,Walsrode,[1 - 19],118,0118 Gymnasium,118 - Gymnasium,Sunderstr. 19,29664 Walsrode,Stadt Walsrode,1,19,
3358024,Zaltbommeler Straße,Walsrode,[2 - 22],115,"0115 Kulturzentrum ""mittendrin""","115 - Kulturzentrum ""mittendrin""",Moorstraße 89,29664 Walsrode,Stadt Walsrode,2,22,
3358024,Zedernweg,Walsrode,[1 - 32],102,"0102 Hans-Brüggemann-Schule, Wahlraum 2","102 - Hans-Brüggemann-Schule, Wahlraum 2",Brüggemannstraße 8,29664 Walsrode,Stadt Walsrode,1,32,
3358024,Ziegelweg,Walsrode,[1 - 6],117,"0117 Alte Schule Vorbrück, Wahlraum 2","117 - Alte Schule Vorbrück, Wahlraum 2",Quintusstraße 35,29664 Walsrode,Stadt Walsrode,1,6,
3358024,Zum Hohen Felde,Walsrode OT Benefeld,[1 - 18 18/7],133,0133 Benefeld Ost,133 - Benefeld Ost,Cordinger Straße 39,29699 Walsrode,Stadt Walsrode,1,18,
3358024,Zum Ruensteen,Walsrode OT Benzen,2,126,0126 Benzen,126 - Benzen,Benzen 82,29664 Walsrode,Stadt Walsrode,2,2,
3358024,Zum Wiesengrund,Walsrode OT Uetzingen,[1 - 21],136,0136 Uetzingen,136 - Uetzingen,Walsroder Straße 110,29699 Walsrode,Stadt Walsrode,1,21,
3358024,Zur Beeke,Walsrode OT Bommelsen,[1 - 6 F],138,0138 Bommelsen-Kroge,138 - Bommelsen-Kroge,Bosselsmoor 10,29699 Walsrode,Stadt Walsrode,1,6,
3358021,Bachstraße,Soltau,[1 - 10],1,Clubheim TC Blau-Weiß e.V.,,,,,1,10,
3358021,Baumschulenweg,Soltau,[1 - 30],1,Clubheim TC Blau-Weiß e.V.,,,,,1,30,
3358021,Beethovenstraße,Soltau,[1 - 35],1,Clubheim TC Blau-Weiß e.V.,,,,,1,35,
3358021,Breidingsgarten,Soltau,[5 - 8],1,Clubheim TC Blau-Weiß e.V.,,,,,5,8,
3358021,Breidingstraße,Soltau,[1 - 33],1,Clubheim TC Blau-Weiß e.V.,,,,,1,33,
3358021,Brüderstraße,Soltau,[1 - 8],1,Clubheim TC Blau-Weiß e.V.,,,,,1,8,
3358021,Claudiusstraße,Soltau,[2 - 23],1,Clubheim TC Blau-Weiß e.V.,,,,,2,23,
3358021,Eckermannweg,Soltau,[1 - 6],1,Clubheim TC Blau-Weiß e.V.,,,,,1,6,
3358021,Freiherr-vom-Stein-Straße,Soltau,[1 - 31],1,Clubheim TC Blau-Weiß e.V.,,,,,1,31,
3358021,Gartenstraße,Soltau,[1 - 4],1,Clubheim TC Blau-Weiß e.V.,,,,,1,4,
3358021,Heinrich-Heine-Straße,Soltau,[1 - 34],1,Clubheim TC Blau-Weiß e.V.,,,,,1,34,
3358021,Heinrich-Mann-Straße,Soltau,[1 - 13],1,Clubheim TC Blau-Weiß e.V.,,,,,1,13,
3358021,Händelstraße,Soltau,[4 - 14],1,Clubheim TC Blau-Weiß e.V.,,,,,4,14,
3358021,Kinaustraße,Soltau,[1 - 20],1,Clubheim TC Blau-Weiß e.V.,,,,,1,20,
3358021,Krumme Rieth,Soltau,[1 - 9 a],1,Clubheim TC Blau-Weiß e.V.,,,,,1,9,
3358021,Louis-Harms-Straße,Soltau,[1 - 18],1,Clubheim TC Blau-Weiß e.V.,,,,,1,18,
3358021,Moorstraße,Soltau,[1 - 44],1,Clubheim TC Blau-Weiß e.V.,,,,,1,44,
3358021,Mozartstraße,Soltau,[1 - 17],1,Clubheim TC Blau-Weiß e.V.,,,,,1,17,
3358021,Schubertstraße,Soltau,[2 - 14],1,Clubheim TC Blau-Weiß e.V.,,,,,2,14,
3358021,Tetendorfer Straße,Soltau,[1 - 37],1,Clubheim TC Blau-Weiß e.V.,,,,,1,37,
3358021,Tetendorfer Straße,Soltau,[39 - 49] ungerade,1,Clubheim TC Blau-Weiß e.V.,,,,,39,49,ungerade
3358021,Thomas-Mann-Straße,Soltau,[1 - 36],1,Clubheim TC Blau-Weiß e.V.,,,,,1,36,
3358021,Walsroder Straße,Soltau,[35 - 85] ungerade,1,Clubheim TC Blau-Weiß e.V.,,,,,35,85,ungerade
3358021,Weinligstraße,Soltau,[1 - 36 a],1,Clubheim TC Blau-Weiß e.V.,,,,,1,36,
3358021,Wilhelm-Busch-Straße,Soltau,[1 - 14],1,Clubheim TC Blau-Weiß e.V.,,,,,1,14,
3358021,Wolfgang-Borchert-Straße,Soltau,[1 - 4],1,Clubheim TC Blau-Weiß e.V.,,,,,1,4,
3358021,Alm,Soltau,[4 - 28 NZA],2,Wilhelm-Busch-Schule I,,,,,4,28,
3358021,Almer Kirchweg,Soltau,[85 - 106],2,Wilhelm-Busch-Schule I,,,,,85,106,
3358021,Almhöhe,Soltau,[1 - 21],2,Wilhelm-Busch-Schule I,,,,,1,21,
3358021,Alter Grenzweg,Soltau,[1 a - 29],2,Wilhelm-Busch-Schule I,,,,,1,29,
3358021,Am Hornberg,Soltau,[1 - 12 a],2,Wilhelm-Busch-Schule I,,,,,1,12,
3358021,Am Kahlberg,Soltau,[1 - 17],2,Wilhelm-Busch-Schule I,,,,,1,17,
3358021,Am Westerfeld,Soltau,[1 - 7] ungerade,2,Wilhelm-Busch-Schule I,,,,,1,7,ungerade
3358021,An den Sieben Stücken,Soltau,[1 - 7],2,Wilhelm-Busch-Schule I,,,,,1,7,
3358021,An der Zionskirche,Soltau,[1 - 5],2,Wilhelm-Busch-Schule I,,,,,1,5,
3358021,Baderstraße,Soltau,[2 - 17],2,Wilhelm-Busch-Schule I,,,,,2,17,
3358021,Barmbruch,Soltau,[1 - 13],2,Wilhelm-Busch-Schule I,,,,,1,13,
3358021,Barmbrucher Weg,Soltau,[1 a - 11 a] ungerade,2,Wilhelm-Busch-Schule I,,,,,1,11,ungerade
3358021,Brekland,Soltau,[1 - 3] ungerade,2,Wilhelm-Busch-Schule I,,,,,1,3,ungerade
3358021,Böttcherstraße,Soltau,[1 - 14],2,Wilhelm-Busch-Schule I,,,,,1,14,
3358021,Färberring,Soltau,[1 - 33],2,Wilhelm-Busch-Schule I,,,,,1,33,
3358021,Gerberplatz,Soltau,[1 - 6],2,Wilhelm-Busch-Schule I,,,,,1,6,
3358021,Goethestraße,Soltau,[1 - 44],2,Wilhelm-Busch-Schule I,,,,,1,44,
3358021,Großeholz,Soltau,[1 - 12],2,Wilhelm-Busch-Schule I,,,,,1,12,
3358021,Herderstraße,Soltau,[1 - 10],2,Wilhelm-Busch-Schule I,,,,,1,10,
3358021,Hof Alm,Soltau,[1 - 3],2,Wilhelm-Busch-Schule I,,,,,1,3,
3358021,Hof Nottorf,Soltau,[1 - 2],2,Wilhelm-Busch-Schule I,,,,,1,2,
3358021,Hof Willingen,Soltau,20,2,Wilhelm-Busch-Schule I,,,,,20,20,
3358021,Kannengießerstraße,Soltau,[3 - 27],2,Wilhelm-Busch-Schule I,,,,,3,27,
3358021,Kiefernweg,Soltau,[1 - 14],2,Wilhelm-Busch-Schule I,,,,,1,14,
3358021,Kleinschmiedstraße,Soltau,[3 - 8],2,Wilhelm-Busch-Schule I,,,,,3,8,
3358021,Kleiststraße,Soltau,[1 - 11],2,Wilhelm-Busch-Schule I,,,,,1,11,
3358021,Kürschnerweg,Soltau,[1 - 10],2,Wilhelm-Busch-Schule I,,,,,1,10,
3358021,Lakenmacherstraße,Soltau,[1 - 18],2,Wilhelm-Busch-Schule I,,,,,1,18,
3358021,Lessingstraße,Soltau,[1 - 21],2,Wilhelm-Busch-Schule I,,,,,1,21,
3358021,Lütjeholz,Soltau,[1 a - 3],2,Wilhelm-Busch-Schule I,,,,,1,3,
3358021,Marbosteler Weg,Soltau,[3 - 11] ungerade,2,Wilhelm-Busch-Schule I,,,,,3,11,ungerade
3358021,Meinern,Soltau,[1 - 18],2,Wilhelm-Busch-Schule I,,,,,1,18,
3358021,Meßhäuser Kirchweg,Soltau,[1 - 4],2,Wilhelm-Busch-Schule I,,,,,1,4,
3358021,Meßhäuser Weg,Soltau,[1 - 7],2,Wilhelm-Busch-Schule I,,,,,1,7,
3358021,Mittelstendorf,Soltau,[1 - 18],2,Wilhelm-Busch-Schule I,,,,,1,18,
3358021,Nottorfweg,Soltau,[1 - 15 a],2,Wilhelm-Busch-Schule I,,,,,1,15,
3358021,Rademacherstraße,Soltau,[1 - 11],2,Wilhelm-Busch-Schule I,,,,,1,11,
3358021,Schillerstraße,Soltau,[5 a - 26],2,Wilhelm-Busch-Schule I,,,,,5,26,
3358021,Schuhmacherstraße,Soltau,[1 - 29],2,Wilhelm-Busch-Schule I,,,,,1,29,
3358021,Tetendorfer Straße,Soltau,[38 - 48] gerade,2,Wilhelm-Busch-Schule I,,,,,38,48,gerade
3358021,Töpferstraße,Soltau,[2 - 21],2,Wilhelm-Busch-Schule I,,,,,2,21,
3358021,Uhlandstraße,Soltau,[1 - 12],2,Wilhelm-Busch-Schule I,,,,,1,12,
3358021,Walsroder Straße,Soltau,[72 - 86] gerade,2,Wilhelm-Busch-Schule I,,,,,72,86,gerade
3358021,Walsroder Straße,Soltau,[87 - 121],2,Wilhelm-Busch-Schule I,,,,,87,121,
3358021,Walsroder Straße,Soltau,118,2,Wilhelm-Busch-Schule I,,,,,118,118,
3358021,Weißenkamp,Soltau,[1 - 3] ungerade,2,Wilhelm-Busch-Schule I,,,,,1,3,ungerade
3358021,Willingen,Soltau,[2 - 36],2,Wilhelm-Busch-Schule I,,,,,2,36,
3358021,Willinger Weg,Soltau,[1 - 24],2,Wilhelm-Busch-Schule I,,,,,1,24,
3358021,Wüsthof,Soltau,[1 - 8],2,Wilhelm-Busch-Schule I,,,,,1,8,
3358021,An der Almaue,Soltau,[2 - 42],3,Wilhelm-Busch-Schule II,,,,,2,42,
3358021,Auf dem Hoyn,Soltau,[2 - 41],3,Wilhelm-Busch-Schule II,,,,,2,41,
3358021,August-Wöhler-Straße,Soltau,[1 - 7],3,Wilhelm-Busch-Schule II,,,,,1,7,
3358021,Beim Rothen Pfahl,Soltau,[1 - 3] ungerade,3,Wilhelm-Busch-Schule II,,,,,1,3,ungerade
3358021,Carl-Mardorf-Weg,Soltau,[1 - 15],3,Wilhelm-Busch-Schule II,,,,,1,15,
3358021,Fritz-Reuter-Straße,Soltau,[1 - 12],3,Wilhelm-Busch-Schule II,,,,,1,12,
3358021,Georg-Droste-Weg,Soltau,[1 - 27],3,Wilhelm-Busch-Schule II,,,,,1,27,
3358021,Gorch-Fock-Straße,Soltau,[1 - 9],3,Wilhelm-Busch-Schule II,,,,,1,9,
3358021,Hinter der Wiese,Soltau,[2 - 49],3,Wilhelm-Busch-Schule II,,,,,2,49,
3358021,Hoyner Heide,Soltau,[1 - 70],3,Wilhelm-Busch-Schule II,,,,,1,70,
3358021,Klaus-Groth-Straße,Soltau,[1 - 18],3,Wilhelm-Busch-Schule II,,,,,1,18,
3358021,Leitzingen,Soltau,[1 - 18],3,Wilhelm-Busch-Schule II,,,,,1,18,
3358021,Lorenz-Wiegels-Straße,Soltau,[1 - 38],3,Wilhelm-Busch-Schule II,,,,,1,38,
3358021,Meyers Bruch,Soltau,[1 a - 3],3,Wilhelm-Busch-Schule II,,,,,1,3,
3358021,Osterbruch,Soltau,[1 - 7],3,Wilhelm-Busch-Schule II,,,,,1,7,
3358021,Osterfeld,Soltau,[2 a - 23],3,Wilhelm-Busch-Schule II,,,,,2,23,
3358021,Schwemmförth,Soltau,[1 - 12],3,Wilhelm-Busch-Schule II,,,,,1,12,
3358021,Theodor-Storm-Straße,Soltau,[1 a - 14],3,Wilhelm-Busch-Schule II,,,,,1,14,
3358021,Thiergarten,Soltau,[1 - 15 b],3,Wilhelm-Busch-Schule II,,,,,1,15,
3358021,Visselhöveder Straße,Soltau,[1 - 118],3,Wilhelm-Busch-Schule II,,,,,1,118,
3358021,Von-der-Wense-Weg,Soltau,[1 - 6 b],3,Wilhelm-Busch-Schule II,,,,,1,6,
3358021,Walsroder Straße,Soltau,[18 - 70 a] gerade,3,Wilhelm-Busch-Schule II,,,,,18,70,gerade
3358021,Wilhelm-Raabe-Straße,Soltau,[2 - 10],3,Wilhelm-Busch-Schule II,,,,,2,10,
3358021,Zu Meyers Föhr,Soltau,[1 - 25],3,Wilhelm-Busch-Schule II,,,,,1,25,
3358021,Eitze,Soltau,[10 - 57],4,Feuerwehrgerätehaus Woltem,,,,,10,57,
3358021,Frielingen,Soltau,[6 - 47],4,Feuerwehrgerätehaus Woltem,,,,,6,47,
3358021,Kreuzkamp,Soltau,[16 - 16 a] gerade,4,Feuerwehrgerätehaus Woltem,,,,,16,16,gerade
3358021,Schulstraße,Soltau,[20 - 68 a] gerade,4,Feuerwehrgerätehaus Woltem,,,,,20,68,gerade
3358021,Springhorn,Soltau,[9 - 9 a] ungerade,4,Feuerwehrgerätehaus Woltem,,,,,9,9,ungerade
3358021,Woltem,Soltau,[1 - 106],4,Feuerwehrgerätehaus Woltem,,,,,1,106,
3358021,Am Bahnhof,Soltau,[1 - 16],5,Römisch-katholische Kirche St. Marien,,,,,1,16,
3358021,Am Güterbahnhof,Soltau,[2 - 9],5,Römisch-katholische Kirche St. Marien,,,,,2,9,
3358021,Am Schwarzen Busch,Soltau,[1 - 26],5,Römisch-katholische Kirche St. Marien,,,,,1,26,
3358021,Bahnhofstraße,Soltau,[1 - 41],5,Römisch-katholische Kirche St. Marien,,,,,1,41,
3358021,Bergstraße,Soltau,[1 - 11] ungerade,5,Römisch-katholische Kirche St. Marien,,,,,1,11,ungerade
3358021,Blumenstraße,Soltau,[5 a - 10],5,Römisch-katholische Kirche St. Marien,,,,,5,10,
3358021,Feldstraße,Soltau,[4 - 35],5,Römisch-katholische Kirche St. Marien,,,,,4,35,
3358021,Hummelweg,Soltau,[1 - 62],5,Römisch-katholische Kirche St. Marien,,,,,1,62,
3358021,Immenweg,Soltau,[1 - 23],5,Römisch-katholische Kirche St. Marien,,,,,1,23,
3358021,Kirchstraße,Soltau,[1 - 7] ungerade,5,Römisch-katholische Kirche St. Marien,,,,,1,7,ungerade
3358021,Libellenweg,Soltau,[1 - 16],5,Römisch-katholische Kirche St. Marien,,,,,1,16,
3358021,Pastor-Rudolf-Schmidt-Weg,Soltau,[4 - 8] gerade,5,Römisch-katholische Kirche St. Marien,,,,,4,8,gerade
3358021,Rühberg,Soltau,[2 - 21],5,Römisch-katholische Kirche St. Marien,,,,,2,21,
3358021,Schäfersort,Soltau,[22 - 71],5,Römisch-katholische Kirche St. Marien,,,,,22,71,
3358021,Seilerstraße,Soltau,[1 - 53],5,Römisch-katholische Kirche St. Marien,,,,,1,53,
3358021,Walsroder Straße,Soltau,[4 - 8] gerade,5,Römisch-katholische Kirche St. Marien,,,,,4,8,gerade
3358021,Weinberg,Soltau,[2 - 47],5,Römisch-katholische Kirche St. Marien,,,,,2,47,
3358021,Wiedinger Weg,Soltau,[5 - 51] ungerade,5,Römisch-katholische Kirche St. Marien,,,,,5,51,ungerade
3358021,Wiesenstraße,Soltau,[1 - 24],5,Römisch-katholische Kirche St. Marien,,,,,1,24,
3358021,Adolf-Reichwein-Straße,Soltau,[7 - 17] ungerade,6,Kita Stalmannstraße,,,,,7,17,ungerade
3358021,Albrecht-Thaer-Straße,Soltau,[1 - 9],6,Kita Stalmannstraße,,,,,1,9,
3358021,Alter Badeweg,Soltau,[2 - 5 a],6,Kita Stalmannstraße,,,,,2,5,
3358021,An de Schöppstee,Soltau,[1 - 21],6,Kita Stalmannstraße,,,,,1,21,
3358021,Anne-Frank-Straße,Soltau,[1 - 6],6,Kita Stalmannstraße,,,,,1,6,
3358021,Bergstraße,Soltau,[4 - 12] gerade,6,Kita Stalmannstraße,,,,,4,12,gerade
3358021,Bergstraße,Soltau,[13 a - 83 a],6,Kita Stalmannstraße,,,,,13,83,
3358021,Buchhopsweg,Soltau,[2 - 42],6,Kita Stalmannstraße,,,,,2,42,
3358021,Bürgermeister-Pfeiffer-Straße,Soltau,[1 - 28],6,Kita Stalmannstraße,,,,,1,28,
3358021,Carl-Friedrich-Goerdeler-Straße,Soltau,[1 - 21],6,Kita Stalmannstraße,,,,,1,21,
3358021,Carl-von-Ossietzky-Straße,Soltau,[1 - 8],6,Kita Stalmannstraße,,,,,1,8,
3358021,Diedrich-Speckmann-Straße,Soltau,[1 - 3],6,Kita Stalmannstraße,,,,,1,3,
3358021,Dietrich-Bonhoeffer-Straße,Soltau,[2 - 12],6,Kita Stalmannstraße,,,,,2,12,
3358021,Edelingstraße,Soltau,[1 - 18],6,Kita Stalmannstraße,,,,,1,18,
3358021,Edith-Stein-Straße,Soltau,[1 - 12],6,Kita Stalmannstraße,,,,,1,12,
3358021,Eva-Maria-Buch-Straße,Soltau,[11 - 13] ungerade,6,Kita Stalmannstraße,,,,,11,13,ungerade
3358021,Flachslandstraße,Soltau,[1 - 20],6,Kita Stalmannstraße,,,,,1,20,
3358021,Franz-Büttner-Straße,Soltau,[1 - 25],6,Kita Stalmannstraße,,,,,1,25,
3358021,Friedenstraße,Soltau,[2 - 8],6,Kita Stalmannstraße,,,,,2,8,
3358021,Friedrich-Ludwig-Jahn-Straße,Soltau,[2 - 14] gerade,6,Kita Stalmannstraße,,,,,2,14,gerade
3358021,Georges-Goffart-Weg,Soltau,[1 - 7] ungerade,6,Kita Stalmannstraße,,,,,1,7,ungerade
3358021,Geschwister-Scholl-Straße,Soltau,[2 - 12],6,Kita Stalmannstraße,,,,,2,12,
3358021,Graf-Galen-Straße,Soltau,[1 - 21],6,Kita Stalmannstraße,,,,,1,21,
3358021,Graf-von-Moltke-Straße,Soltau,[1 - 46],6,Kita Stalmannstraße,,,,,1,46,
3358021,Greveweg,Soltau,[1 - 15 c],6,Kita Stalmannstraße,,,,,1,15,
3358021,Grünhagensweg,Soltau,[1 - 11],6,Kita Stalmannstraße,,,,,1,11,
3358021,Honhorstweg,Soltau,[2 - 11],6,Kita Stalmannstraße,,,,,2,11,
3358021,Jochen-Klepper-Straße,Soltau,5,6,Kita Stalmannstraße,,,,,5,5,
3358021,Julius-Leber-Straße,Soltau,[1 - 30 a],6,Kita Stalmannstraße,,,,,1,30,
3358021,Kirchstraße,Soltau,[2 - 8] gerade,6,Kita Stalmannstraße,,,,,2,8,gerade
3358021,Lerchenstraße,Soltau,[1 a - 24],6,Kita Stalmannstraße,,,,,1,24,
3358021,Mühlenstraße,Soltau,[1 - 30],6,Kita Stalmannstraße,,,,,1,30,
3358021,Mühlenweg,Soltau,[2 - 17],6,Kita Stalmannstraße,,,,,2,17,
3358021,Neue Straße,Soltau,[4 - 28],6,Kita Stalmannstraße,,,,,4,28,
3358021,Nickelstraße,Soltau,[1 - 26],6,Kita Stalmannstraße,,,,,1,26,
3358021,Pastor-Bode-Weg,Soltau,[1 - 15],6,Kita Stalmannstraße,,,,,1,15,
3358021,Poststraße,Soltau,[2 - 12] gerade,6,Kita Stalmannstraße,,,,,2,12,gerade
3358021,Poststraße,Soltau,[15 - 28],6,Kita Stalmannstraße,,,,,15,28,
3358021,Quergasse,Soltau,[1 - 6],6,Kita Stalmannstraße,,,,,1,6,
3358021,Rosenstraße,Soltau,[1 - 23],6,Kita Stalmannstraße,,,,,1,23,
3358021,Saarlandstraße,Soltau,[1 - 20],6,Kita Stalmannstraße,,,,,1,20,
3358021,Scheibenstraße,Soltau,[3 - 11],6,Kita Stalmannstraße,,,,,3,11,
3358021,Schützenstraße,Soltau,[2 - 10],6,Kita Stalmannstraße,,,,,2,10,
3358021,Stalmannstraße,Soltau,[1 - 16],6,Kita Stalmannstraße,,,,,1,16,
3358021,Unter den Linden,Soltau,[1 - 25],6,Kita Stalmannstraße,,,,,1,25,
3358021,Wiedinger Weg,Soltau,[10 - 12] gerade,6,Kita Stalmannstraße,,,,,10,12,gerade
3358021,Willi-Graf-Straße,Soltau,[1 - 57],6,Kita Stalmannstraße,,,,,1,57,
3358021,Zum Ahlftener Flatt,Soltau,[1 - 39] ungerade,6,Kita Stalmannstraße,,,,,1,39,ungerade
3358021,Am Hollbusch,Soltau,[1 - 11],7,Feuerwehrgerätehaus Wolterdingen,,,,,1,11,
3358021,Am Wildpark,Soltau,[1 - 3],7,Feuerwehrgerätehaus Wolterdingen,,,,,1,3,
3358021,Auf dem Meeck,Soltau,[1 - 49],7,Feuerwehrgerätehaus Wolterdingen,,,,,1,49,
3358021,Auf dem Simpel,Soltau,[1 - 2],7,Feuerwehrgerätehaus Wolterdingen,,,,,1,2,
3358021,Brinkstraße,Soltau,[1 - 15],7,Feuerwehrgerätehaus Wolterdingen,,,,,1,15,
3358021,Buchweizenstraße,Soltau,[3 - 10 b],7,Feuerwehrgerätehaus Wolterdingen,,,,,3,10,
3358021,Böhmeweg,Soltau,[1 - 25],7,Feuerwehrgerätehaus Wolterdingen,,,,,1,25,
3358021,Büntweg,Soltau,[1 - 18],7,Feuerwehrgerätehaus Wolterdingen,,,,,1,18,
3358021,Dinkelweg,Soltau,[1 a - 47 b],7,Feuerwehrgerätehaus Wolterdingen,,,,,1,47,
3358021,Drögenheide,Soltau,[0 SOLTA - 11],7,Feuerwehrgerätehaus Wolterdingen,,,,,0,11,
3358021,Ellingen,Soltau,[1 - 26],7,Feuerwehrgerätehaus Wolterdingen,,,,,1,26,
3358021,Falshorn,Soltau,1,7,Feuerwehrgerätehaus Wolterdingen,,,,,1,1,
3358021,Gerstenweg,Soltau,[1 - 41],7,Feuerwehrgerätehaus Wolterdingen,,,,,1,41,
3358021,Grenzwall,Soltau,[2 - 26],7,Feuerwehrgerätehaus Wolterdingen,,,,,2,26,
3358021,Haferweg,Soltau,[1 - 89],7,Feuerwehrgerätehaus Wolterdingen,,,,,1,89,
3358021,Hagebuttenweg,Soltau,[1 - 15],7,Feuerwehrgerätehaus Wolterdingen,,,,,1,15,
3358021,Hubenkamp,Soltau,[1 - 3] ungerade,7,Feuerwehrgerätehaus Wolterdingen,,,,,1,3,ungerade
3358021,Huckenrieth,Soltau,[1 - 8],7,Feuerwehrgerätehaus Wolterdingen,,,,,1,8,
3358021,In der Heide,Soltau,[1 - 15],7,Feuerwehrgerätehaus Wolterdingen,,,,,1,15,
3358021,In der Reith,Soltau,[1 - 39],7,Feuerwehrgerätehaus Wolterdingen,,,,,1,39,
3358021,Kabenbusch,Soltau,[1 - 11],7,Feuerwehrgerätehaus Wolterdingen,,,,,1,11,
3358021,Kleiner Ring,Soltau,[1 - 26],7,Feuerwehrgerätehaus Wolterdingen,,,,,1,26,
3358021,Nach dem Höllen,Soltau,1,7,Feuerwehrgerätehaus Wolterdingen,,,,,1,1,
3358021,Reimerdinger Straße,Soltau,[1 - 3] ungerade,7,Feuerwehrgerätehaus Wolterdingen,,,,,1,3,ungerade
3358021,Ringstraße,Soltau,[1 - 55],7,Feuerwehrgerätehaus Wolterdingen,,,,,1,55,
3358021,Roggenweg,Soltau,[1 - 28],7,Feuerwehrgerätehaus Wolterdingen,,,,,1,28,
3358021,Rundweg,Soltau,[1 - 17],7,Feuerwehrgerätehaus Wolterdingen,,,,,1,17,
3358021,Schneverdinger Straße,Soltau,[13 - 20],7,Feuerwehrgerätehaus Wolterdingen,,,,,13,20,
3358021,Soltauer Straße,Soltau,[1 - 17],7,Feuerwehrgerätehaus Wolterdingen,,,,,1,17,
3358021,Weideweg,Soltau,1,7,Feuerwehrgerätehaus Wolterdingen,,,,,1,1,
3358021,Wiedingen,Soltau,[1 - 16 a],7,Feuerwehrgerätehaus Wolterdingen,,,,,1,16,
3358021,Wieheholz,Soltau,[1 - 2],7,Feuerwehrgerätehaus Wolterdingen,,,,,1,2,
3358021,Wieheholzer Straße,Soltau,[0 - 5 a],7,Feuerwehrgerätehaus Wolterdingen,,,,,0,5,
3358021,Wolterdinger Dorfstraße,Soltau,[1 - 12],7,Feuerwehrgerätehaus Wolterdingen,,,,,1,12,
3358021,Zum Marrah,Soltau,10,7,Feuerwehrgerätehaus Wolterdingen,,,,,10,10,
3358021,Zum Wiesengrund,Soltau,[1 - 7],7,Feuerwehrgerätehaus Wolterdingen,,,,,1,7,
3358021,Achtergang,Soltau,[1 - 11],8,Aula des Gymnasiums Soltau,,,,,1,11,
3358021,Astrid-Lindgren-Weg,Soltau,[2 a - 6] gerade,8,Aula des Gymnasiums Soltau,,,,,2,6,gerade
3358021,Bornemannstraße,Soltau,[1 - 18],8,Aula des Gymnasiums Soltau,,,,,1,18,
3358021,Bugenhagenweg,Soltau,[3 - 12],8,Aula des Gymnasiums Soltau,,,,,3,12,
3358021,Böningweg,Soltau,[1 a - 50],8,Aula des Gymnasiums Soltau,,,,,1,50,
3358021,Damaschkeweg,Soltau,[1 - 12],8,Aula des Gymnasiums Soltau,,,,,1,12,
3358021,Eduard-Wendebourg-Weg,Soltau,[1 - 26 b],8,Aula des Gymnasiums Soltau,,,,,1,26,
3358021,Erich-Kästner-Straße,Soltau,[2 a - 12] gerade,8,Aula des Gymnasiums Soltau,,,,,2,12,gerade
3358021,Ernst-August-Straße,Soltau,[3 - 17],8,Aula des Gymnasiums Soltau,,,,,3,17,
3358021,Fichteweg,Soltau,[2 - 20],8,Aula des Gymnasiums Soltau,,,,,2,20,
3358021,Friedrich-Einhoff-Ring,Soltau,[1 - 32],8,Aula des Gymnasiums Soltau,,,,,1,32,
3358021,Hasenwinkel,Soltau,[1 - 29 a],8,Aula des Gymnasiums Soltau,,,,,1,29,
3358021,Henning-von-Tresckow-Weg,Soltau,[1 - 57],8,Aula des Gymnasiums Soltau,,,,,1,57,
3358021,Kantweg,Soltau,[1 - 53],8,Aula des Gymnasiums Soltau,,,,,1,53,
3358021,Klabundeweg,Soltau,[1 - 8],8,Aula des Gymnasiums Soltau,,,,,1,8,
3358021,Lönsweg,Soltau,[1 - 40],8,Aula des Gymnasiums Soltau,,,,,1,40,
3358021,Lüneburger Straße,Soltau,[1 - 93] ungerade,8,Aula des Gymnasiums Soltau,,,,,1,93,ungerade
3358021,Martin-Luther-Straße,Soltau,[4 - 12],8,Aula des Gymnasiums Soltau,,,,,4,12,
3358021,Mümmelmannsweg,Soltau,[1 - 11],8,Aula des Gymnasiums Soltau,,,,,1,11,
3358021,Neue Gärten,Soltau,[1 - 16],8,Aula des Gymnasiums Soltau,,,,,1,16,
3358021,Oeninger Weg,Soltau,[1 - 59],8,Aula des Gymnasiums Soltau,,,,,1,59,
3358021,Otfried-Preußler-Allee,Soltau,[1 - 6],8,Aula des Gymnasiums Soltau,,,,,1,6,
3358021,Raiffeisenweg,Soltau,[1 - 28],8,Aula des Gymnasiums Soltau,,,,,1,28,
3358021,Reitschulweg,Soltau,[1 - 26],8,Aula des Gymnasiums Soltau,,,,,1,26,
3358021,Schulze-Delitzsch-Weg,Soltau,[1 - 18],8,Aula des Gymnasiums Soltau,,,,,1,18,
3358021,Stubbendorffweg,Soltau,8,8,Aula des Gymnasiums Soltau,,,,,8,8,
3358021,Viktoria-Luise-Straße,Soltau,[1 - 9],8,Aula des Gymnasiums Soltau,,,,,1,9,
3358021,Von-Bodelschwingh-Straße,Soltau,[3 - 18],8,Aula des Gymnasiums Soltau,,,,,3,18,
3358021,Waterloostraße,Soltau,[1 - 9] ungerade,8,Aula des Gymnasiums Soltau,,,,,1,9,ungerade
3358021,Wilhelm-Leuschner-Weg,Soltau,[1 a - 18],8,Aula des Gymnasiums Soltau,,,,,1,18,
3358021,Wilhelmstraße,Soltau,[7 - 25] ungerade,8,Aula des Gymnasiums Soltau,,,,,7,25,ungerade
3358021,Winsener Straße,Soltau,[1 - 118],8,Aula des Gymnasiums Soltau,,,,,1,118,
3358021,Am Hungerborn,Soltau,[1 - 26],9,Stiftung Haus Zuflucht,,,,,1,26,
3358021,Am Oeninger Moor,Soltau,82,9,Stiftung Haus Zuflucht,,,,,82,82,
3358021,Am Spiekerhof,Soltau,[1 - 10],9,Stiftung Haus Zuflucht,,,,,1,10,
3358021,An den Kiefern,Soltau,[1 - 8],9,Stiftung Haus Zuflucht,,,,,1,8,
3358021,An der Weide,Soltau,[34 - 38] gerade,9,Stiftung Haus Zuflucht,,,,,34,38,gerade
3358021,An der Weide,Soltau,[39 - 123],9,Stiftung Haus Zuflucht,,,,,39,123,
3358021,Aueweg,Soltau,[1 - 28],9,Stiftung Haus Zuflucht,,,,,1,28,
3358021,Bickbeerngrund,Soltau,[1 - 50],9,Stiftung Haus Zuflucht,,,,,1,50,
3358021,Buchenweg,Soltau,[1 - 6],9,Stiftung Haus Zuflucht,,,,,1,6,
3358021,Diesterwegstraße,Soltau,[2 - 16],9,Stiftung Haus Zuflucht,,,,,2,16,
3358021,Eibenweg,Soltau,[1 - 16],9,Stiftung Haus Zuflucht,,,,,1,16,
3358021,Eichenbrink,Soltau,[2 - 17],9,Stiftung Haus Zuflucht,,,,,2,17,
3358021,Erlenweg,Soltau,[2 - 8] gerade,9,Stiftung Haus Zuflucht,,,,,2,8,gerade
3358021,Eschenweg,Soltau,[3 - 18],9,Stiftung Haus Zuflucht,,,,,3,18,
3358021,Florian-Bartos-Straße,Soltau,[1 - 12],9,Stiftung Haus Zuflucht,,,,,1,12,
3358021,Forellenweg,Soltau,[1 - 34],9,Stiftung Haus Zuflucht,,,,,1,34,
3358021,Fröbelstraße,Soltau,[2 - 10] gerade,9,Stiftung Haus Zuflucht,,,,,2,10,gerade
3358021,Fuhrenkamp,Soltau,[1 - 17],9,Stiftung Haus Zuflucht,,,,,1,17,
3358021,Gaudigstraße,Soltau,[2 - 14],9,Stiftung Haus Zuflucht,,,,,2,14,
3358021,Ginsterweg,Soltau,[1 - 42],9,Stiftung Haus Zuflucht,,,,,1,42,
3358021,Gottfried-von-Cramm-Straße,Soltau,[1 - 3] ungerade,9,Stiftung Haus Zuflucht,,,,,1,3,ungerade
3358021,Habichtsweg,Soltau,[2 - 15],9,Stiftung Haus Zuflucht,,,,,2,15,
3358021,Haselhang,Soltau,[1 - 17],9,Stiftung Haus Zuflucht,,,,,1,17,
3358021,Herbartstraße,Soltau,[2 - 4] gerade,9,Stiftung Haus Zuflucht,,,,,2,4,gerade
3358021,Hirtenweg,Soltau,[1 - 10],9,Stiftung Haus Zuflucht,,,,,1,10,
3358021,Kastanienweg,Soltau,[1 - 10],9,Stiftung Haus Zuflucht,,,,,1,10,
3358021,Kerschensteinerstraße,Soltau,[2 - 8],9,Stiftung Haus Zuflucht,,,,,2,8,
3358021,Kronsbeerenweg,Soltau,[1 - 40],9,Stiftung Haus Zuflucht,,,,,1,40,
3358021,Lüneburger Straße,Soltau,[78 - 96] gerade,9,Stiftung Haus Zuflucht,,,,,78,96,gerade
3358021,Lüneburger Straße,Soltau,[97 - 195],9,Stiftung Haus Zuflucht,,,,,97,195,
3358021,Montessoristraße,Soltau,[1 - 11],9,Stiftung Haus Zuflucht,,,,,1,11,
3358021,Neues Rottland,Soltau,[1 - 18],9,Stiftung Haus Zuflucht,,,,,1,18,
3358021,Pappelweg,Soltau,[2 - 8 a] gerade,9,Stiftung Haus Zuflucht,,,,,2,8,gerade
3358021,Pestalozzistraße,Soltau,[1 - 51],9,Stiftung Haus Zuflucht,,,,,1,51,
3358021,Schmiedeweg,Soltau,[1 - 15],9,Stiftung Haus Zuflucht,,,,,1,15,
3358021,Tannenweg,Soltau,[1 - 79],9,Stiftung Haus Zuflucht,,,,,1,79,
3358021,Tannenwinkel,Soltau,[1 - 24],9,Stiftung Haus Zuflucht,,,,,1,24,
3358021,Ulmenweg,Soltau,[1 - 23],9,Stiftung Haus Zuflucht,,,,,1,23,
3358021,Vogelbeerweg,Soltau,6,9,Stiftung Haus Zuflucht,,,,,6,6,
3358021,Vor der Harber Brücke,Soltau,[1 - 14],9,Stiftung Haus Zuflucht,,,,,1,14,
3358021,Wacholdergrund,Soltau,[1 - 12],9,Stiftung Haus Zuflucht,,,,,1,12,
3358021,Weidedamm,Soltau,32,9,Stiftung Haus Zuflucht,,,,,32,32,
3358021,Weidegrund,Soltau,[1 - 3],9,Stiftung Haus Zuflucht,,,,,1,3,
3358021,Akazienweg,Soltau,[1 - 21],10,Feuerwehrgerätehaus Dittmern-Deimern,,,,,1,21,
3358021,Am Bienenzaun,Soltau,[2 - 40],10,Feuerwehrgerätehaus Dittmern-Deimern,,,,,2,40,
3358021,Am Helmstein,Soltau,[1 - 17],10,Feuerwehrgerätehaus Dittmern-Deimern,,,,,1,17,
3358021,Am Wall,Soltau,[1 - 5],10,Feuerwehrgerätehaus Dittmern-Deimern,,,,,1,5,
3358021,Beim Helmstein,Soltau,1,10,Feuerwehrgerätehaus Dittmern-Deimern,,,,,1,1,
3358021,Birkhahnweg,Soltau,[1 - 8],10,Feuerwehrgerätehaus Dittmern-Deimern,,,,,1,8,
3358021,Bürgermeister-Wischhoff-Straße,Soltau,[1 - 28],10,Feuerwehrgerätehaus Dittmern-Deimern,,,,,1,28,
3358021,Deimern,Soltau,[1 - 12],10,Feuerwehrgerätehaus Dittmern-Deimern,,,,,1,12,
3358021,Dittmern,Soltau,[1 - 9],10,Feuerwehrgerätehaus Dittmern-Deimern,,,,,1,9,
3358021,Erlengrund,Soltau,[1 - 8],10,Feuerwehrgerätehaus Dittmern-Deimern,,,,,1,8,
3358021,Fasanenweg,Soltau,[1 - 2],10,Feuerwehrgerätehaus Dittmern-Deimern,,,,,1,2,
3358021,Fuchsschneise,Soltau,[1 - 6],10,Feuerwehrgerätehaus Dittmern-Deimern,,,,,1,6,
3358021,Grasengrund,Soltau,[1 - 8],10,Feuerwehrgerätehaus Dittmern-Deimern,,,,,1,8,
3358021,Grüne Aue,Soltau,[1 - 2 a],10,Feuerwehrgerätehaus Dittmern-Deimern,,,,,1,2,
3358021,Hambostel,Soltau,[1 - 13],10,Feuerwehrgerätehaus Dittmern-Deimern,,,,,1,13,
3358021,Harmelingen,Soltau,[1 - 18 a],10,Feuerwehrgerätehaus Dittmern-Deimern,,,,,1,18,
3358021,Harmelinger Horstweg,Soltau,[2 - 18] gerade,10,Feuerwehrgerätehaus Dittmern-Deimern,,,,,2,18,gerade
3358021,Hauptstraße,Soltau,[1 - 19],10,Feuerwehrgerätehaus Dittmern-Deimern,,,,,1,19,
3358021,Heide Park,Soltau,1,10,Feuerwehrgerätehaus Dittmern-Deimern,,,,,1,1,
3358021,Heidenhof,Soltau,[1 - 7],10,Feuerwehrgerätehaus Dittmern-Deimern,,,,,1,7,
3358021,Höpenhof,Soltau,[1 - 6],10,Feuerwehrgerätehaus Dittmern-Deimern,,,,,1,6,
3358021,Schnepfenstrich,Soltau,[1 - 7],10,Feuerwehrgerätehaus Dittmern-Deimern,,,,,1,7,
3358021,Timmerloh,Soltau,[1 - 14],10,Feuerwehrgerätehaus Dittmern-Deimern,,,,,1,14,
3358021,Uhlenkamp,Soltau,[1 - 8],10,Feuerwehrgerätehaus Dittmern-Deimern,,,,,1,8,
3358021,Zur Fuchsfarm,Soltau,[1 - 6],10,Feuerwehrgerätehaus Dittmern-Deimern,,,,,1,6,
3358021,Abelbecker Weg,Soltau,[1 - 32],11,Feuerwehrgerätehaus Harber,,,,,1,32,
3358021,Am Hang,Soltau,[1 - 22],11,Feuerwehrgerätehaus Harber,,,,,1,22,
3358021,Am Hegt,Soltau,[9 - 11] ungerade,11,Feuerwehrgerätehaus Harber,,,,,9,11,ungerade
3358021,Am Hohen Kamp,Soltau,[2 - 8] gerade,11,Feuerwehrgerätehaus Harber,,,,,2,8,gerade
3358021,Am Husselbeck,Soltau,[1 - 36 a],11,Feuerwehrgerätehaus Harber,,,,,1,36,
3358021,Am Mönchenberg,Soltau,[1 - 8 a],11,Feuerwehrgerätehaus Harber,,,,,1,8,
3358021,Am Wacholderpark,Soltau,[1 - 4],11,Feuerwehrgerätehaus Harber,,,,,1,4,
3358021,An der Bundesstraße,Soltau,[1 - 25],11,Feuerwehrgerätehaus Harber,,,,,1,25,
3358021,An der Steinfabrik,Soltau,[1 a - 2],11,Feuerwehrgerätehaus Harber,,,,,1,2,
3358021,Betenbarg,Soltau,[1 - 19],11,Feuerwehrgerätehaus Harber,,,,,1,19,
3358021,Brümmerhof,Soltau,[1 - 5 a],11,Feuerwehrgerätehaus Harber,,,,,1,5,
3358021,Dittmerner Mühlenweg,Soltau,[1 - 3 c],11,Feuerwehrgerätehaus Harber,,,,,1,3,
3358021,Drülloh,Soltau,[3 - 26],11,Feuerwehrgerätehaus Harber,,,,,3,26,
3358021,Gottlieb-Daimler-Straße,Soltau,[2 a - 11],11,Feuerwehrgerätehaus Harber,,,,,2,11,
3358021,Harber Moor,Soltau,1,11,Feuerwehrgerätehaus Harber,,,,,1,1,
3358021,Hasenheide,Soltau,[1 - 17],11,Feuerwehrgerätehaus Harber,,,,,1,17,
3358021,Heidberg,Soltau,[2 - 11],11,Feuerwehrgerätehaus Harber,,,,,2,11,
3358021,Heideweg,Soltau,[1 - 2],11,Feuerwehrgerätehaus Harber,,,,,1,2,
3358021,Hof Abelbeck,Soltau,[1 - 4],11,Feuerwehrgerätehaus Harber,,,,,1,4,
3358021,Hof Willenbockel,Soltau,[1 - 3],11,Feuerwehrgerätehaus Harber,,,,,1,3,
3358021,Moide,Soltau,[1 - 4],11,Feuerwehrgerätehaus Harber,,,,,1,4,
3358021,Moider Mühlenweg,Soltau,[5 - 9] ungerade,11,Feuerwehrgerätehaus Harber,,,,,5,9,ungerade
3358021,Oeningen,Soltau,[1 - 30],11,Feuerwehrgerätehaus Harber,,,,,1,30,
3358021,Poggenbarg,Soltau,[1 a - 11 b],11,Feuerwehrgerätehaus Harber,,,,,1,11,
3358021,Querland,Soltau,[1 - 34],11,Feuerwehrgerätehaus Harber,,,,,1,34,
3358021,Rahrsberg,Soltau,7,11,Feuerwehrgerätehaus Harber,,,,,7,7,
3358021,Sonnenberg,Soltau,[1 - 13],11,Feuerwehrgerätehaus Harber,,,,,1,13,
3358021,Spiekerhof,Soltau,[2 - 18],11,Feuerwehrgerätehaus Harber,,,,,2,18,
3358021,Strihnbarg,Soltau,[1 - 26],11,Feuerwehrgerätehaus Harber,,,,,1,26,
3358021,Tiegen,Soltau,[1 - 6],11,Feuerwehrgerätehaus Harber,,,,,1,6,
3358021,Tiegener Busch,Soltau,[1 - 12],11,Feuerwehrgerätehaus Harber,,,,,1,12,
3358021,Tiegener Straße,Soltau,[2 - 41],11,Feuerwehrgerätehaus Harber,,,,,2,41,
3358021,Up De Linnen,Soltau,[16 - 103],11,Feuerwehrgerätehaus Harber,,,,,16,103,
3358021,Wehrkamp,Soltau,[1 - 8],11,Feuerwehrgerätehaus Harber,,,,,1,8,
3358021,Wietzendorfer Straße,Soltau,[1 - 8],11,Feuerwehrgerätehaus Harber,,,,,1,8,
3358021,Wischengrund,Soltau,[1 - 59],11,Feuerwehrgerätehaus Harber,,,,,1,59,
3358021,Alte Trift,Soltau,[1 - 9],12,Hermann-Billung-Schule,,,,,1,9,
3358021,Amselweg,Soltau,[1 - 34 a],12,Hermann-Billung-Schule,,,,,1,34,
3358021,An der Weide,Soltau,[1 - 33],12,Hermann-Billung-Schule,,,,,1,33,
3358021,An der Weide,Soltau,37,12,Hermann-Billung-Schule,,,,,37,37,
3358021,Berliner Platz,Soltau,[2 - 24],12,Hermann-Billung-Schule,,,,,2,24,
3358021,Billunghof,Soltau,[2 - 8] gerade,12,Hermann-Billung-Schule,,,,,2,8,gerade
3358021,Billungstraße,Soltau,[1 - 43],12,Hermann-Billung-Schule,,,,,1,43,
3358021,Birkenstraße,Soltau,[2 - 25],12,Hermann-Billung-Schule,,,,,2,25,
3358021,Brandenburger Hof,Soltau,[1 - 6],12,Hermann-Billung-Schule,,,,,1,6,
3358021,Brandenburger Straße,Soltau,[1 - 29],12,Hermann-Billung-Schule,,,,,1,29,
3358021,Breslauer Straße,Soltau,[2 - 22],12,Hermann-Billung-Schule,,,,,2,22,
3358021,Celler Straße,Soltau,[3 - 55 b] ungerade,12,Hermann-Billung-Schule,,,,,3,55,ungerade
3358021,Danziger Hof,Soltau,[1 - 4],12,Hermann-Billung-Schule,,,,,1,4,
3358021,Danziger Straße,Soltau,[1 - 34],12,Hermann-Billung-Schule,,,,,1,34,
3358021,Drosselweg,Soltau,[1 - 38],12,Hermann-Billung-Schule,,,,,1,38,
3358021,Elsterweg,Soltau,[1 - 14 a],12,Hermann-Billung-Schule,,,,,1,14,
3358021,Finkenweg,Soltau,[1 - 12],12,Hermann-Billung-Schule,,,,,1,12,
3358021,Freudenthalstraße,Soltau,[1 - 35],12,Hermann-Billung-Schule,,,,,1,35,
3358021,Harm-Tyding-Hof,Soltau,4,12,Hermann-Billung-Schule,,,,,4,4,
3358021,Harm-Tyding-Straße,Soltau,[2 - 18],12,Hermann-Billung-Schule,,,,,2,18,
3358021,Heidlandstraße,Soltau,[1 - 34],12,Hermann-Billung-Schule,,,,,1,34,
3358021,Herzog-Bernd-Straße,Soltau,[1 - 63],12,Hermann-Billung-Schule,,,,,1,63,
3358021,Herzog-Magnus-Straße,Soltau,[1 - 30],12,Hermann-Billung-Schule,,,,,1,30,
3358021,Kiebitzweg,Soltau,[1 - 11],12,Hermann-Billung-Schule,,,,,1,11,
3358021,Königsberger Straße,Soltau,[1 - 23],12,Hermann-Billung-Schule,,,,,1,23,
3358021,Landolfdamm,Soltau,[12 - 32],12,Hermann-Billung-Schule,,,,,12,32,
3358021,Landolfhof,Soltau,[1 - 17],12,Hermann-Billung-Schule,,,,,1,17,
3358021,Lüneburger Straße,Soltau,[2 - 68] gerade,12,Hermann-Billung-Schule,,,,,2,68,gerade
3358021,Posener Straße,Soltau,[2 a - 10],12,Hermann-Billung-Schule,,,,,2,10,
3358021,Reinickendorfer Straße,Soltau,[1 - 32],12,Hermann-Billung-Schule,,,,,1,32,
3358021,Stettiner Straße,Soltau,[1 - 18],12,Hermann-Billung-Schule,,,,,1,18,
3358021,Tilsiter Straße,Soltau,[4 - 18] gerade,12,Hermann-Billung-Schule,,,,,4,18,gerade
3358021,Trift,Soltau,[1 - 84],12,Hermann-Billung-Schule,,,,,1,84,
3358021,Wilhelm-Ehlers-Straße,Soltau,[1 - 12],12,Hermann-Billung-Schule,,,,,1,12,
3358021,Alte Zollstraße,Soltau,[11 - 19] ungerade,13,Bauhof,,,,,11,19,ungerade
3358021,Am Alten Stadtgraben,Soltau,[1 - 9] ungerade,13,Bauhof,,,,,1,9,ungerade
3358021,Am Sandberg,Soltau,[1 - 18],13,Bauhof,,,,,1,18,
3358021,Am Stuckeberg,Soltau,[1 - 17],13,Bauhof,,,,,1,17,
3358021,Auf den Helln,Soltau,[1 - 7],13,Bauhof,,,,,1,7,
3358021,Bassel,Soltau,[1 - 6],13,Bauhof,,,,,1,6,
3358021,Beim Schäferkreuz,Soltau,[1 - 7],13,Bauhof,,,,,1,7,
3358021,Bornkamp,Soltau,[2 - 13],13,Bauhof,,,,,2,13,
3358021,Breck,Soltau,1,13,Bauhof,,,,,1,1,
3358021,Brock,Soltau,[1 - 9],13,Bauhof,,,,,1,9,
3358021,Brombeerweg,Soltau,[1 - 9],13,Bauhof,,,,,1,9,
3358021,Burg,Soltau,[1 - 8],13,Bauhof,,,,,1,8,
3358021,Böhmheide,Soltau,[2 - 48],13,Bauhof,,,,,2,48,
3358021,Bürgermeister-Schultz-Straße,Soltau,[4 - 31],13,Bauhof,,,,,4,31,
3358021,Carl-Benz-Straße,Soltau,[1 - 19],13,Bauhof,,,,,1,19,
3358021,Celler Straße,Soltau,[2 - 56] gerade,13,Bauhof,,,,,2,56,gerade
3358021,Celler Straße,Soltau,[57 - 169],13,Bauhof,,,,,57,169,
3358021,Charlottenstraße,Soltau,[4 - 20],13,Bauhof,,,,,4,20,
3358021,Dannhorn,Soltau,[1 - 9],13,Bauhof,,,,,1,9,
3358021,Eduard-Röders-Straße,Soltau,[1 - 8],13,Bauhof,,,,,1,8,
3358021,Georges-Lemoine-Platz,Soltau,[1 - 14],13,Bauhof,,,,,1,14,
3358021,Hagen,Soltau,[1 - 19],13,Bauhof,,,,,1,19,
3358021,Hebenbrock,Soltau,[1 - 5 a],13,Bauhof,,,,,1,5,
3358021,Hof Loh,Soltau,[1 - 7 a] ungerade,13,Bauhof,,,,,1,7,ungerade
3358021,Im Dorfe,Soltau,[1 - 6 b],13,Bauhof,,,,,1,6,
3358021,Im Winkel,Soltau,[1 - 7],13,Bauhof,,,,,1,7,
3358021,Imbrock,Soltau,[1 - 7],13,Bauhof,,,,,1,7,
3358021,Kampstraße,Soltau,[1 - 10],13,Bauhof,,,,,1,10,
3358021,Karl-Baurichter-Straße,Soltau,[1 - 16 c],13,Bauhof,,,,,1,16,
3358021,Kuhdamm,Soltau,[1 - 4],13,Bauhof,,,,,1,4,
3358021,Langobardenweg,Soltau,[1 - 11],13,Bauhof,,,,,1,11,
3358021,Lohengaustraße,Soltau,[1 - 26],13,Bauhof,,,,,1,26,
3358021,Marbostel,Soltau,[1 - 5],13,Bauhof,,,,,1,5,
3358021,Marienburger Damm,Soltau,[1 - 42],13,Bauhof,,,,,1,42,
3358021,Marktstraße,Soltau,[1 - 45],13,Bauhof,,,,,1,45,
3358021,Meßhausen,Soltau,[2 - 15],13,Bauhof,,,,,2,15,
3358021,Neuer Hagen,Soltau,[1 - 5],13,Bauhof,,,,,1,5,
3358021,Neuhaus,Soltau,1,13,Bauhof,,,,,1,1,
3358021,Penzhorn,Soltau,[1 - 23 a],13,Bauhof,,,,,1,23,
3358021,Poststraße,Soltau,[1 - 3] ungerade,13,Bauhof,,,,,1,3,ungerade
3358021,Sachsenweg,Soltau,[1 - 11],13,Bauhof,,,,,1,11,
3358021,Soldiner Straße,Soltau,[1 - 25],13,Bauhof,,,,,1,25,
3358021,Vor dem Weiherbusch,Soltau,[1 - 15],13,Bauhof,,,,,1,15,
3358021,Walsroder Straße,Soltau,[9 - 33] ungerade,13,Bauhof,,,,,9,33,ungerade
3358021,Walter-Müller-Straße,Soltau,1,13,Bauhof,,,,,1,1,
3358021,Weiherweg,Soltau,[1 - 11],13,Bauhof,,,,,1,11,
3358021,Widukindstraße,Soltau,[1 - 7] ungerade,13,Bauhof,,,,,1,7,ungerade
3358021,Wilhelmstraße,Soltau,[2 - 26] gerade,13,Bauhof,,,,,2,26,gerade
3358021,Winkelweg,Soltau,[1 - 4],13,Bauhof,,,,,1,4,
3358021,Emhof,Soltau,[1 - 6],14,Feuerwehrgerätehaus Hötzingen,,,,,1,6,
3358021,Emmingen,Soltau,[1 - 16],14,Feuerwehrgerätehaus Hötzingen,,,,,1,16,
3358021,Hötzingen,Soltau,[1 - 44 a],14,Feuerwehrgerätehaus Hötzingen,,,,,1,44,
3358021,Kamerun,Soltau,[1 - 2],14,Feuerwehrgerätehaus Hötzingen,,,,,1,2,
3358021,Königskrug,Soltau,[1 - 3],14,Feuerwehrgerätehaus Hötzingen,,,,,1,3,
3358021,Stübeckshorn,Soltau,[1 - 31],14,Feuerwehrgerätehaus Hötzingen,,,,,1,31,
3358021,Adolf-Arnold-Weg,Soltau,[1 - 7],15,Katastrophenschutzzentrum,,,,,1,7,
3358021,Ahlftener Kirchweg,Soltau,[1 - 2],15,Katastrophenschutzzentrum,,,,,1,2,
3358021,Albert-Schweitzer-Straße,Soltau,[1 - 12],15,Katastrophenschutzzentrum,,,,,1,12,
3358021,Am Berge,Soltau,[1 - 27],15,Katastrophenschutzzentrum,,,,,1,27,
3358021,Am Ebshang,Soltau,[1 - 8],15,Katastrophenschutzzentrum,,,,,1,8,
3358021,Am Halifax,Soltau,[1 - 8],15,Katastrophenschutzzentrum,,,,,1,8,
3358021,Ebsmoor,Soltau,[2 - 64],15,Katastrophenschutzzentrum,,,,,2,64,
3358021,Eduard-Salfeld-Straße,Soltau,[1 - 15],15,Katastrophenschutzzentrum,,,,,1,15,
3358021,Einfrielinger Weg,Soltau,[1 - 14 c],15,Katastrophenschutzzentrum,,,,,1,14,
3358021,Forstgarten,Soltau,[2 - 6] gerade,15,Katastrophenschutzzentrum,,,,,2,6,gerade
3358021,Frido-Witte-Weg,Soltau,[4 - 6],15,Katastrophenschutzzentrum,,,,,4,6,
3358021,Gellertstraße,Soltau,[2 - 14],15,Katastrophenschutzzentrum,,,,,2,14,
3358021,Hanna-Rehr-Straße,Soltau,[2 - 9 c],15,Katastrophenschutzzentrum,,,,,2,9,
3358021,Harburger Straße,Soltau,[1 - 154],15,Katastrophenschutzzentrum,,,,,1,154,
3358021,Heidjerweg,Soltau,[1 - 8],15,Katastrophenschutzzentrum,,,,,1,8,
3358021,Hollenmoor,Soltau,[1 - 3] ungerade,15,Katastrophenschutzzentrum,,,,,1,3,ungerade
3358021,In den Hübeeten,Soltau,[2 - 21],15,Katastrophenschutzzentrum,,,,,2,21,
3358021,Johanna-Röders-Ring,Soltau,[1 a - 22],15,Katastrophenschutzzentrum,,,,,1,22,
3358021,Mundschenkweg,Soltau,[1 - 15],15,Katastrophenschutzzentrum,,,,,1,15,
3358021,Otto-Husemann-Straße,Soltau,[3 - 8],15,Katastrophenschutzzentrum,,,,,3,8,
3358021,Parkweg,Soltau,[1 - 14 b],15,Katastrophenschutzzentrum,,,,,1,14,
3358021,Pastor-Wolde-Weg,Soltau,[1 - 5] ungerade,15,Katastrophenschutzzentrum,,,,,1,5,ungerade
3358021,Paul-Gerhardt-Straße,Soltau,[2 - 36],15,Katastrophenschutzzentrum,,,,,2,36,
3358021,Schüttenweg,Soltau,[1 - 38],15,Katastrophenschutzzentrum,,,,,1,38,
3358021,Spittastraße,Soltau,[1 - 12],15,Katastrophenschutzzentrum,,,,,1,12,
3358021,Vor den Höfen,Soltau,[1 - 7],15,Katastrophenschutzzentrum,,,,,1,7,
3358021,Zum Ahlftener Flatt,Soltau,[2 - 56] gerade,15,Katastrophenschutzzentrum,,,,,2,56,gerade
3358021,Zum Ebsbusch,Soltau,[2 - 55],15,Katastrophenschutzzentrum,,,,,2,55,